ID,Name,City,Country,FAA,Latitude,Longitude
5714,Aberdeen Regional Airport,Aberdeen,United States,ABR,45.4491,-98.4218
3772,Phillips Army Airfield,Aberdeen,United States,APG,39.466219,-76.168808
3718,Abilene Regional,Abilene,United States,ABI,32.411319,-99.681897
3695,Dyess Air Force Base,Abilene,United States,DYS,32.420756,-99.8546
5959,Adak Airport,Adak Island,United States,ADK,51.878,-176.646
7513,Addison Airport,Addison,United States,ADS,32.9685594,-96.8364478
8515,Municipal Airport,Aiken,United States,AIK,33.6493889,-81.6850278
7160,Akhiok Airport,Akhiok,United States,AKK,56.938611,-154.1825
7217,Akiak Airport,Akiak,United States,AKI,60.902778,-161.230556
3587,Akron Fulton International Airport,Akron,United States,AKC,41.0375,-81.466917
4112,Akron Canton Regional Airport,Akron,United States,CAK,40.9160833,-81.4421944
6134,Akutan Seaplane Base,Akutan,United States,KQA,54.1325,-165.785
8394,Shelby County Airport,Alabaster,United States,EET,33.1777778,-86.7832222
7199,Alakanuk Airport,Alakanuk,United States,AUK,62.68,-164.66
9071,Alameda Naval Air Station,Alameda,United States,NGZ,37.7861,-122.3186
5717,Alamogordo White Sands Regional Airport,Alamogordo,United States,ALM,32.8399,-105.991
3802,Holloman Air Force Base,Alamogordo,United States,HMN,32.852519,-106.106525
7073,San Luis Valley Regional Airport,Alamosa,United States,ALS,37.435,-105.866667
5715,Southwest Georgia Regional Airport,Albany,United States,ABY,31.5355,-84.1945
3864,Albany International Airport,Albany,United States,ALB,42.748267,-73.801692
4019,Albuquerque International Sunport,Albuquerque,United States,ABQ,35.0402222,-106.6091944
6126,Aleknagik Airport,Aleknagik,United States,WKK,59.2826,-158.618
3852,Alexandria International Airport,Alexandria,United States,AEX,31.3274,-92.549833
8275,Alexandria Airport,Alexandria,United States,ALX,38.806346,-77.0621
3634,Esler Regional Airport,Alexandria,United States,ESF,31.394903,-92.295772
3574,Alice International Airport,Alice,United States,ALI,27.740889,-98.026944
6839,Allakaket Airport,Allakaket,United States,AET,66.5519,-152.6222
4355,Lehigh Valley International Airport,Allentown,United States,ABE,40.652083,-75.440806
7067,Alliance Municipal Airport,Alliance,United States,AIA,42.053333,-102.803889
5720,Alpena County Regional Airport,Alpena,United States,APN,45.0781,-83.5603
3694,Altoona Blair County Airport,Altoona,United States,AOO,40.296372,-78.320022
3635,Altus Air Force Base,Altus,United States,LTS,34.667067,-99.266681
3840,Rick Husband Amarillo International Airport,Amarillo,United States,AMA,35.219369,-101.705931
7177,Ambler Airport,Ambler,United States,ABL,67.106389,-157.8575
9414,Jimmy Carter Regional,Americus,United States,ACJ,32.0665,-84.1133
7167,Amook Bay Seaplane Base,Amook Bay,United States,AOS,57.471389,-153.815278
7084,Anacortes Airport,Anacortes,United States,OTS,48.498889,-122.6625
6712,Anaktuvuk Pass Airport,Anaktuvuk Pass,United States,AKP,68.1336,-151.743
3774,Ted Stevens Anchorage International Airport,Anchorage,United States,ANC,61.174361,-149.996361
3692,Elmendorf Air Force Base,Anchorage,United States,EDF,61.250986,-149.806503
8051,Lake Hood Seaplane Base,Anchorage,United States,LHD,61.1866382,-149.9653918
3438,Merrill Field Airport,Anchorage,United States,MRI,61.213544,-149.844447
3466,Anderson Regional Airport,Andersen,United States,AND,34.494583,-82.709389
8553,Tri-State Steuben County Airport,Angola,United States,ANQ,41.6396983,-85.0834933
7135,Angoon Seaplane Base,Angoon,United States,AGN,57.503611,-134.585
5967,Aniak Airport,Aniak,United States,ANI,61.5816,-159.543
7021,Ankeny Regl Airport,Ankeny,United States,IKV,41.691389,-93.566389
8989,Ann Arbor Municipal Airport,Ann Arbor,United States,ARB,42.132274,-83.444418
8935,Lee Airport,Annapolis,United States,ANP,38.942778,-76.568333
3477,Annette Island Airport,Annette Island,United States,ANN,55.042436,-131.572233
3485,Anniston Metropolitan Airport,Anniston,United States,ANB,33.588167,-85.858111
6713,Anvik Airport,Anvik,United States,ANV,62.6467,-160.191
8252,Apalachicola Regional Airport,Apalachicola,United States,Army Airfield,29.7276066,-85.0274416
8525,Foster Field Airport,Apple River,United States,7A4,42.4664444,-90.1693889
4047,Appleton Airport,Appleton,United States,ATW,44.257526,-88.507576
4384,Arcata Airport,Arcata,United States,ACV,40.978111,-124.108611
6729,Arctic Village Airport,Arctic Village,United States,ARC,68.1147,-145.579
3654,Ardmore Muni Airport,Ardmore,United States,ADM,34.300833,-97.008889
7846,Arlington Municipal Airport,Arlington,United States,GKY,32.6638611,-97.0942778
4007,Asheville Regional Airport,Asheville,United States,AVL,35.436194,-82.541806
8536,Ashland County Airport,Ashland,United States,3G4,40.9029722,-82.2556389
7001,Aspen Pitkin County Sardy Field Airport,Aspen,United States,ASE,39.2232,-106.869
7085,Astoria Regional Airport,Astoria,United States,AST,46.157972,-123.878694
5716,Athens Ben Epps Airport,Athens,United States,AHN,33.9486,-83.3263
7984,McMinn County  Airport,Athens,United States,MMI,35.39919,-84.56177
7195,Atka Airport,Atka,United States,AKB,52.220278,-174.206389
3682,Hartsfield Jackson Atlanta International Airport,Atlanta,United States,ATL,33.636719,-84.428067
8306,Atlanta Regional Airport,Atlanta,United States,FFC,33.35725,-84.5718333
7497,Fulton County Airport,Atlanta,United States,FTY,33.7791,-84.5214
7654,Dekalb-Peachtree Airport,Atlanta,United States,PDK,33.8756111,-84.3019722
7712,Cobb County Airport,Atlanta,United States,RYY,34.0131569,-84.5970556
3524,Atlantic City International Airport,Atlantic City,United States,ACY,39.457583,-74.577167
8198,Atmautluak Airport,Atmautluak,United States,369,60.866667,-162.273056
6714,Atqasuk Edward Burnell Sr Memorial Airport,Atqasuk,United States,ATK,70.4673,-157.436
9418,Auburn University Regional Airport,Auburn,United States,AUO,32.3691,-85.2604
3701,Augusta State Airport,Augusta,United States,AUG,44.320647,-69.797317
8318,Daniel Field Airport,Augusta,United States,DNL,33.4665028,-82.0393808
3673,Austin Bergstrom International Airport,Austin,United States,AUS,30.194528,-97.669889
4385,Camp Mabry Airport,Austin,United States,ATT,30.31666,-97.7666
8507,Executive Airport,Avon Park,United States,AVO,27.591389,-81.528889
8688,Bagdad Airport,Bagdad,United States,E51,34.5958528,-113.170195
8215,Decatur County Industrial Air Park,Bainbridge,United States,BGE,30.9715981,-84.6369278
3558,Meadows Field Airport,Bakersfield,United States,BFL,35.433598,-119.05677
9179,Saratoga County Airport,Ballston Spa,United States,5B2,43.050722,-73.861638
3849,Baltimore Washington International Airport,Baltimore,United States,BWI,39.175361,-76.668333
9183,Martin State Airport,Baltimore,United States,MTN,39.3256667,-76.4137778
8521,Bamberg County Airport,Bamberg,United States,99N,33.3045278,-81.1084167
3463,Bangor International Airport,Bangor,United States,BGR,44.807444,-68.828139
4025,Hancock County Airport,Bar Harbor,United States,BHB,44.4497689,-68.3615653
8524,Baraboo Wisconsin Dells Airport,Baraboo,United States,DLL,43.5217843,-89.7709266
3785,Barking Sands PMRF Airport,Barking Sands,United States,BKH,22.022833,-159.785
4278,Barnstable Muni Boardman Polando Field Airport,Barnstable,United States,HYA,41.669336,-70.280356
3571,Wiley Post Will Rogers Memorial Airport,Barrow,United States,BRW,71.285446,-156.766003
3411,Barter Island LRRS Airport,Barter Island,United States,BTI,70.133989,-143.581867
7621,Bartow Municipal Airport,Bartow,United States,BOW,27.9434,-81.7834
8560,Genesee County Airport,Batavia,United States,GVQ,43.03175,-78.1696667
3846,Baton Rouge Metropolitan Airport,Baton Rouge,United States,BTR,30.533167,-91.149639
3662,Baudette International Airport,Baudette,United States,BDE,48.728444,-94.612222
7049,BFT County Airport,Beauford,United States,BFT,32.41083,-80.635
3769,Beaufort Airport,Beaufort,United States,BFT,32.477411,-80.723161
9190,Beaumont Municipal Airport,Beaumont,United States,BMT,30.0702044,-94.2150967
3612,Southeast Texas Regional Airport,Beaumont,United States,BPT,29.950833,-94.020694
7115,Beaver Airport,Beaver,United States,WBQ,66.362222,-147.406667
8790,Beaver Falls Airport,Beaver Falls,United States,BFP,40.7724722,-80.3914444
8191,Welke Airport,Beaver Island,United States,6Y8,45.721111,-85.520278
5724,Raleigh County Memorial Airport,Beckley,United States,BKW,37.7873,-81.1242
3425,Laurence G. Hanscom Field Airport,Bedford,United States,BED,42.469953,-71.289031
3790,Scott Air Force Base Midamerica,Belleville,United States,BLV,38.545178,-89.835183
3777,Bellingham International Airport,Bellingham,United States,BLI,48.792694,-122.537528
4287,Bemidji Regional Airport,Bemidji,United States,BJI,47.510722,-94.934722
6904,Southwest Michigan Regional Airport,Benton Harbor,United States,BEH,42.1285833,-86.4285
4356,NW Arkansas Regional,Bentonville,United States,XNA,36.2818694,-94.3068111
9428,Bessemer Airport,Bessemer,United States,EKY,33.1876,-86.5558
3599,Bethel Airport,Bethel,United States,BET,60.779778,-161.838
3417,Bettles Airport,Bettles,United States,BTT,66.913944,-151.529056
8658,Beverly Municipal Airport,Beverly,United States,BVY,42.584141,-70.9161444
7993,Big Bear City Airport,Big Bear,United States,L35,34.2637778,-116.8560278
3431,Big Mountain Air Force Station,Big Mountain,United States,BMX,59.361247,-155.258822
7720,Big Timber Airport,Big Timber,United States,6S0,45.8063889,-109.9811111
4021,Billings Logan International Airport,Billings,United States,BIL,45.80921,-108.537654
3538,Keesler Air Force Base,Biloxi,United States,BIX,30.410425,-88.924433
4129,Greater Binghamton Edwin A. Link Field Airport,Binghamton,United States,BGM,42.208689,-75.979839
3811,Birmingham International Airport,Birmingham,United States,BHM,33.562942,-86.75355
4083,Bismarck Municipal Airport,Bismarck,United States,BIS,46.775842,-100.757931
8171,Blakely Island Airport,Blakely Island,United States,BYW,48.56025,-122.80243
8195,Block Island State Airport,Block Island,United States,BID,41.168056,-71.577778
7655,Monroe County Airport,Bloomington,United States,BMG,39.1460208,-86.6166805
4037,Central Illinois Regional,Bloomington,United States,BMI,40.477111,-88.915917
6128,Mercer County Airport,Bluefield,United States,BLF,37.2958,-81.2077
4136,Blythe Airport,Blythe,United States,BLH,33.619167,-114.716889
3523,Arkansas International Airport,Blytheville,United States,BYH,35.964347,-89.943956
3831,Boca Raton Airport,Boca Raton,United States,BCT,26.3785,-80.107694
3495,Boise Air Terminal Airport,Boise,United States,BOI,43.564361,-116.222861
6879,Clow International Airport,Bolingbrook,United States,1CS,41.6959744,-88.1292306
7585,Borrego Valley Airport,Borrego Springs,United States,BXS,33.2590278,-116.3209722
3448,General Edward Lawrence Logan International Airport,Boston,United States,BOS,42.364347,-71.005181
8854,Boulder Municipal Airport,Boulder,United States,WBU,40.039444,-105.225833
6449,Boulder City Municipal Airport,Boulder City,United States,BLD,35.5651,-114.514
7848,Bowling Green-Warren County Regional Airport,Bowling Green,United States,BWG,36.9645278,-86.4196667
4020,Gallatin Field Airport,Bozeman,United States,BZN,45.777643,-111.160151
8541,Braceville Airport,Braceville,United States,41N,41.2111675,-80.9692572
5722,Bradford Regional Airport,Bradford,United States,BFD,41.8031,-78.6401
3787,Bradshaw Army Airfield,Bradshaw Field,United States,BSF,19.760056,-155.553717
6957,Brainerd Lakes Regional Airport,Brainerd,United States,BRD,46.398308,-94.138078
6962,Branson Airport,Branson,United States,BKG,36.531994,-93.200556
4229,Stephens County  Airport,Breckenridge,United States,BKD,32.719047,-98.891
6445,Bremerton National Airport,Bremerton,United States,PWT,47.490244,-122.764814
7183,Brevig Mission Airport,Brevig Mission,United States,KTS,65.331389,-166.465833
7118,Birch Creek Airport,Brich Creek,United States,KBC,66.256708,-145.815319
6999,Brigham City Airport,Brigham City,United States,BMC,41.552,-112.062
4116,Tri-Cities Regional Airport,Bristol,United States,TRI,36.4752222,-82.4074167
6127,Brookings Regional Airport,Brookings,United States,BKX,44.3048,-96.8169
7822,Rocky Mountain Metropolitan Airport,Broomfield,United States,BJC,39.90888888,-105.1172222
3738,Brownsville South Padre Island International Airport,Brownsville,United States,BRO,25.906833,-97.425861
7007,Brownwood Regional Airport,Brownwood,United States,BWD,31.7936111,-98.9565
5725,Brunswick Golden Isles Airport,Brunswick,United States,BQK,31.2588,-81.4665
8789,McKinnon Airport,Brunswick,United States,SSI,31.1519722,-81.3910556
8564,Williams County Airport,Bryan,United States,0G6,41.4673056,-84.5067778
3631,Coulter Field Airport,Bryan,United States,CFD,30.715694,-96.331361
7857,Bryce Canyon Airport,Bryce Canyon,United States,BCE,37.706444,-112.145806
7982,Buckeye Municipal Airport,Buckeye,United States,BXK,33.420417,-112.68618
7178,Buckland Airport,Buckland,United States,BKC,65.981667,-161.149167
3567,Buckley Air Force Base,Buckley,United States,BKF,39.701668,-104.75166
8557,Port Bucyrus-Crawford County Airport,Bucyrus,United States,17G,40.7815556,-82.9748056
3820,Buffalo Niagara International Airport,Buffalo,United States,BUF,42.940525,-78.732167
6131,Laughlin-Bullhead International Airport,Bullhead,United States,IFP,35.1574,-114.56
3644,Bob Hope Airport,Burbank,United States,BUR,34.200667,-118.358667
5726,Southeast Iowa Regional Airport,Burlington,United States,BRL,40.7832,-91.1255
3711,Burlington International Airport,Burlington,United States,BTV,44.471861,-73.153278
8528,Municipal Airport,Burlington,United States,BUU,42.6907171,-88.3046825
7859,Burlington-Alamance Regional Airport,Burlington,United States,BUY,36.0485433,-79.4748892
3658,Augusta Regional Airport,Bush Field,United States,AGS,33.369944,-81.9645
4022,Bert Mooney Airport,Butte,United States,BTM,45.954806,-112.497472
8065,Cairo-Grady County Airport,Cairo,United States,70J,30.8879767,-84.1547353
7990,Caldwell Essex County Airport,Caldwell,United States,CDW,40.8752222,-74.2813611
3709,Calexico International Airport,Calexico,United States,CXL,32.669502,-115.51333
6889,Cambridge Municipal Airport,Cambridge,United States,CDI,39.9750278,-81.5775833
8516,Woodward Field Airport,Camden,United States,CDN,34.2835833,-80.5648611
7048,Volk Field Airport,Camp Douglas,United States,VOK,43.938956,-90.253433
3552,Andrews Air Force Base,Camp Springs,United States,ADW,38.810806,-76.867028
8805,Cherokee County Airport,Canton,United States,47A,34.3122175,-84.4221556
5728,Cape Girardeau Regional Airport,Cape Girardeau,United States,CGI,37.2253,-89.5708
3413,Cape Lisburne LRRS Airport,Cape Lisburne,United States,LUR,68.875133,-166.110022
3427,Cape Newenham LRRS Airport,Cape Newenham,United States,EHM,58.646428,-162.062778
3424,Cape Romanzof LRRS Airport,Cape Romanzof,United States,CZF,61.780297,-166.038747
3478,Caribou Muni Airport,Caribou,United States,CAR,46.8715,-68.017917
4088,McClellan-Palomar Airport,Carlsbad,United States,CLD,33.0742,-117.1648
3597,Cavern City Air Terminal,Carlsbad,United States,CNM,32.337472,-104.263278
8300,West Georgia Regional Airport,Carrollton,United States,CTJ,33.6316964,-85.1522641
8292,Cartersville Airport,Cartersville,United States,VPC,34.1231475,-84.8487067
7980,Casa Grande Municipal Airport,Casa Grande,United States,CGZ,32.954889,-111.766832
3872,Natrona County International Airport,Casper,United States,CPR,42.908,-106.464417
7025,Avalon Airport,Catalina Island,United States,AVX,33.405,-118.415833
3824,Cedar City Regional Airport,Cedar City,United States,CDC,37.700967,-113.098847
8800,Cedar Key Airport,Cedar Key,United States,CDK,29.1342222,-83.0504722
4043,Cedar Rapids Airport,Cedar Rapids,United States,CID,41.884694,-91.710806
8304,Polk County Airport,Cedartown,United States,4A4,34.0186944,-85.1464722
7116,Central Airport,Central,United States,CEM,65.573889,-144.780833
8293,Centre-Piedmont-Cherokee County Regional Airport,Centre,United States,PYP,34.0899167,-85.6100833
7066,Chadron Municipal Airport,Chadron,United States,CDR,42.8375,-103.095556
7105,Chalkyitsik Airport,Chalkyitsik,United States,CIK,66.645,-143.74
4049,Champaign Airport,Champaign,United States,CMI,40.03925,-88.278056
8162,Charlevoix Municipal Airport,Charelvoix,United States,CVX,45.3047778,-85.2753333
3806,Charleston Air Force Base International Airport,Charleston,United States,CHS,32.898647,-80.040528
4285,Yeager Airport,Charleston,United States,CRW,38.373147,-81.593189
3876,Charlotte Douglas International Airport,Charlotte,United States,CLT,35.214,-80.943139
8905,Monroe Reqional Airport,Charlotte,United States,EQY,35.01833,-80.62001
4015,Charlottesville-Albemarle Airport,Charlottesville,United States,CHO,38.138639,-78.452861
3578,Lovell Field Airport,Chattanooga,United States,CHA,35.035278,-85.203808
6960,Chefornak Airport,Chefornak,United States,CYF,60.149167,-164.285556
9408,Chehalis-Centralia Airport,Chehalis,United States,CLS,46.4062,-122.5897
8444,Chemehuevi Valley Airport,Chemehuevi Valley,United States,49X,34.528889,-114.431971
7233,Chenega Bay Airport,Chenega,United States,NCN,60.077222,-147.991944
3656,Cherry Point Marine Corps Air Station,Cherry Point,United States,NKT,34.900872,-76.880733
5968,Chevak Airport,Chevak,United States,VAK,61.5338,-165.584
3804,Cheyenne Regional Jerry Olson Field Airport,Cheyenne,United States,CYS,41.155722,-104.811839
8593,Meigs Field Airport,Chicago,United States,CGX,41.860278,-87.609722
3747,Chicago Midway International Airport,Chicago,United States,MDW,41.785972,-87.752417
3830,Chicago Ohare International Airport,Chicago,United States,ORD,41.978603,-87.904842
3818,Waukegan Regional Airport,Chicago,United States,UGN,42.422161,-87.867908
7936,Chicago Executive Airport,Chicago-Wheeling,United States,PWK,42.1142897,-87.9015376
3710,Chico Muni Airport,Chico,United States,CIC,39.795383,-121.858422
3828,Westover Arb Metropolitan Airport,Chicopee Falls,United States,CEF,42.194014,-72.534783
7156,Chignik Bay Seaplane Base,Chignik,United States,KBW,56.295556,-158.401398
7155,Chignik Lagoon Airport,Chignik Lagoon,United States,KCL,56.311111,-158.534167
7153,Chignik Lake Airport,Chignik Lake,United States,KCQ,56.255,-158.775278
3537,Childress Muni Airport,Childress,United States,CDS,34.433781,-100.287992
3490,China Lake Naval Air Weapons Station,China,United States,NID,35.685422,-117.692039
7884,Chinle Municipal Airport,Chinle,United States,E91,36.1108806,-109.5754222
7234,Chisana Airport,Chisana,United States,CZN,62.071111,-142.048333
7091,Chuathbaluk Airport,Chuathbaluk,United States,CHU,61.579167,-159.215556
8552,Harford County Airport,Churchville,United States,0W3,39.5668378,-76.2024028
3488,Cincinnati Northern Kentucky International Airport,Cincinnati,United States,CVG,39.048836,-84.667822
3681,Cincinnati Muni Lunken Field Airport,Cincinnati,United States,LUK,39.103333,-84.418611
7236,Circle City Airport,Circle,United States,IRC,65.827778,-144.076111
5730,Harrison Marion Regional Airport,Clarksburg,United States,CKB,39.2966,-80.2281
8763,Clarksville-Montgomery County Regional Airport,Clarksville,United States,CKV,36.621944,-87.415
8851,Clear Lake Metroport,Clear Lake City,United States,CLC,29.5569,-95.137497
3418,Clear Airport,Clear Mews,United States,Z84,64.301203,-149.120144
8565,Clearwater Air Park,Clearwater,United States,CLW,27.9764722,-82.7586667
8802,Clemson Airport,Clemson,United States,CEU,34.6722222,-82.8858889
8544,Burke Lakefront Airport,Cleveland,United States,BKL,41.5175,-81.683333
3486,Cleveland Hopkins International Airport,Cleveland,United States,CLE,41.411689,-81.849794
8793,Hardwick Field Airport,Cleveland,United States,HDI,35.2199994,-84.832369
8655,Clinton Municipal Airport,Clinton,United States,CWI,41.83075,-90.3289722
4223,Clovis Municipal Airport,Clovis,United States,CVN,34.425139,-103.079278
3834,Cannon Air Force Base,Clovis,United States,CVS,34.382775,-103.322147
8772,Chester County G. O. Carlson Airport,Coatesville,United States,CTH,39.9789,-75.8654
3623,Patrick Air Force Base,Coco Beach,United States,COF,28.234922,-80.610125
9197,Merritt Island Airport,Cocoa,United States,COI,28.3416111,-80.6854722
4344,Yellowstone Regional Airport,Cody,United States,COD,44.520194,-109.023806
9189,Pappy Boyington Airport,Coeur d'Alene,United States,COE,47.7743056,-116.8195833
7237,Coffman Cove Seaplane Base,Coffman Cove,United States,KCC,56.014722,-132.833889
3854,Cold Bay Airport,Cold Bay,United States,CDB,55.206061,-162.725436
7204,Port Moller Airport,Cold Bay,United States,PML,56.006111,-160.560833
7119,Coldfoot Airport,Coldfoot,United States,CXF,67.251389,-150.176111
8624,Branch County Memorial Airport,Coldwater,United States,OEB,41.9335691,-85.0522935
3715,Easterwood Field Airport,College Station,United States,CLL,30.588583,-96.363833
3868,Columbus Air Force Base,Colombus,United States,CBM,33.643833,-88.443833
3819,City Of Colorado Springs Municipal  Airport,Colorado Springs,United States,COS,38.805805,-104.700778
3561,Columbia Metropolitan Airport,Columbia,United States,CAE,33.938833,-81.119528
3719,Columbia Regional Airport,Columbia,United States,COU,38.818094,-92.219631
3759,Port Columbus International Airport,Columbus,United States,CMH,39.997972,-82.891889
4255,Columbus Metropolitan Airport,Columbus,United States,CSG,32.5163333,-84.9388611
3674,Rickenbacker International Airport,Columbus,United States,LCK,39.813786,-82.927822
7511,Ohio State University Airport,Columbus,United States,OSU,40.0798,-83.073
9403,Bolton Field Airport,Columbus,United States,TZR,39.901111,-83.136944
4273,Golden Triangle Regional Airport,Columbus Mississippi,United States,GTR,33.450333,-88.591361
7888,Buchanan Field Airport,Concord,United States,CCR,37.9896667,-122.0568889
4268,Concord Municipal Airport,Concord,United States,CON,43.20267,-71.50233
3619,Lone Star Executive Airport,Conroe,United States,CXO,30.351833,-95.414467
8870,Coolidge Municipal Airport,Cooldige,United States,P08,32.93590164,-111.427002
8636,Martin Campbell Field Airport,Copperhead,United States,1A3,35.0158056,-84.3468333
8117,Crisp County Cordele Airport,Cordele,United States,CKF,31.9888333,-83.7739167
3610,Merle K. Mudhole Smith Airport,Cordova,United States,CDV,60.491778,-145.477556
3744,Corpus Christi International Airport,Corpus Christi,United States,CRP,27.770361,-97.501222
7023,Corpus Christi Naval Air Station,Corpus Christi,United States,NGP,27.692701,-97.290376
4338,Cortez Municipal Airport,Cortez,United States,CEZ,37.303,-108.628056
9488,Corvallis Municipal  Airport,Corvallis,United States,CVO,44.5067,-123.2915
8871,Cottonwood Airport,Cottonwood,United States,P52,34.72999954,-112.0350037
3844,Cotulla Lasalle County Airport,Cotulla,United States,COT,28.456694,-99.220294
7189,Council Airport,Council,United States,CIL,64.897778,-163.703333
8307,Covington Municipal Airport,Covington,United States,9A1,33.6323083,-83.8474472
7144,Craig Seaplane Base,Craig,United States,CGA,55.478889,-133.147778
5727,Del Norte County Airport,Crescent City,United States,CEC,41.7802,-124.237
3555,Bob Sikes Airport,Crestview,United States,CEW,30.778833,-86.522111
7238,Crooked Creek Airport,Crooked Creek,United States,CKD,61.867778,-158.135
8801,Cross City Airport,Cross City,United States,CTY,29.6355278,-83.10475
9447,Crystal Airport,Crystal,United States,MIC,45.0343,-93.2114
9182,Crystal River Airport,Crystal River,United States,CGC,28.8676111,-82.5741111
8474,Greater Cumberland Regional Airport,Cumberland,United States,CBE,39.615278,-78.760556
3470,Cut Bank Municipal Airport,Cutbank,United States,CTB,48.608353,-112.376144
3482,Dalhart Municipal Airport,Dalhart,United States,DHT,36.022586,-102.547278
3502,Dallas Love Field Airport,Dallas,United States,DAL,32.847111,-96.851778
8188,Dallas Executive Airport,Dallas,United States,RBD,32.680833,-96.868333
7935,Collin County Regional Airport,Dallas,United States,TKI,33.1779444,-96.5905278
3670,Dallas Fort Worth International Airport,Dallas-Fort Worth,United States,DFW,32.896828,-97.037997
8299,Dalton Municipal Airport,Dalton,United States,DNN,34.7229444,-84.87025
8286,Danbury Municipal Airport,Danbury,United States,DXR,41.3715353,-73.4821906
9191,Vermilion Regional Airport,Danville,United States,DNV,40.1996944,-87.5955278
8313,Darlington County Jetport,Darlington,United States,UDG,34.4493845,-79.8900608
7651,Yolo County Airport,Davis-Woodland-Winters,United States,DWA,38.5793889,-121.8569444
8794,Mark Anton Airport,Dayton,United States,2A0,35.48625,-84.9310833
3627,James M Cox Dayton International Airport,Dayton,United States,DAY,39.902375,-84.219375
3763,Wright Patterson Air Force Base,Dayton,United States,FFO,39.826111,-84.048332
7776,Dayton-Wright Brothers Airport,Dayton,United States,MGY,39.5889722,-84.2248611
3950,Daytona Beach International Airport,Daytona Beach,United States,DAB,29.179917,-81.058056
6874,De Kalb Taylor Municipal Airport,De Kalb,United States,DKB,41.9338342,-88.7056864
3620,Deadhorse Airport,Deadhorse,United States,SCC,70.19475,-148.465167
8176,Furnace Creek Airport,Death Valley National Park,United States,L06,36.273,-116.515
4042,Decatur Airport,Decatur,United States,DEC,39.834564,-88.865689
9540,Deer Harbor Seaplane,Deer Harbor,United States,DHB,48.618397,-123.00596
6755,Deering Airport,Deering,United States,DRG,66.0696,-162.766
8310,DeFuniak Springs Airport,DeFuniak Springs,United States,54J,30.7311111,-86.1537778
3483,Laughlin Air Force Base,Del Rio,United States,DLF,29.359486,-100.777975
3792,Del Rio International Airport,Del Rio,United States,DRT,29.374208,-100.927158
7716,Dell Flight Strip,Dell,United States,4U9,44.7357483,-112.7200133
7581,Delta Municipal Airport,Delta,United States,DTA,39.3806386,-112.5077147
3475,Allen Army Airfield,Delta Junction,United States,BIG,63.994547,-145.721642
4222,Centennial,Denver,United States,APA,39.570129,-104.849294
3751,Denver International Airport,Denver,United States,DEN,39.861656,-104.673178
3786,Beauregard Regional Airport,Deridder,United States,DRI,30.831722,-93.339917
3729,Des Moines International Airport,Des Moines,United States,DSM,41.533972,-93.663083
7514,Destin Airport,Destin,United States,DTS,30.4000611,-86.4714772
3737,Coleman A Young Municipal Airport,Detroit,United States,DET,42.409195,-83.009861
3645,Detroit Metro Wayne County Airport,Detroit,United States,DTW,42.212444,-83.353389
3809,Willow Run Airport,Detroit,United States,YIP,42.237928,-83.530408
7063,Devils Lake Regional Airport,Devils Lake,United States,DVL,48.114444,-98.908611
7064,Dickinson Theodore Roosevelt Regional Airport,Dickinson,United States,DIK,46.7975,-102.801944
3460,Dillingham Airport,Dillingham,United States,DLG,59.044667,-158.5055
3583,Dodge City Regional Airport,Dodge City,United States,DDC,37.7634,-99.9656
5733,Dothan Regional Airport,Dothan,United States,DHN,31.321339,-85.449628
3739,Douglas Municipal Airport,Douglas,United States,DGL,31.3426028,-109.5064544
8273,Bisbee Douglas International Airport,Douglas,United States,DUG,31.469028,-109.603667
3474,Dover Air Force Base,Dover,United States,DOV,39.129539,-75.465958
3487,Dowagiac Municipal Airport,Dowagiac,United States,C91,41.9929342,-86.1280125
6890,Drummond Island Airport,Drummond Island,United States,DRM,46.0093114,-83.7439342
8644,DuBois Regional Airport,Du Bois,United States,DUJ,41.1783,-78.8987
5734,W. H. Barron Field Airport,Dublin,United States,DBN,32.3388,-82.591
9450,Dubuque Regional Airport,Dubuque IA,United States,DBQ,42.402,-90.709472
4388,Duluth International Airport,Duluth,United States,DLH,46.842091,-92.193649
3598,Halliburton Field Airport,Duncan,United States,DUC,34.4713056,-97.9598611
7880,Chautauqua County-Dunkirk Airport,Dunkirk,United States,DKK,42.4933353,-79.2720417
8545,Durango La Plata County Airport,Durango,United States,DRO,37.151516,-107.75377
3713,Eagle Airport,Eagle,United States,EAA,64.778056,-141.149722
7106,Eagle County Airport,Eagle,United States,EGA,39.6427611,-106.9159347
7038,Eagle River Airport,Eagle River,United States,EGV,45.932333,-89.268283
7019,St. Louis Downtown Airport,East St. Louis,United States,CPS,38.5707244,-90.1562211
7322,Stroudsburg-Pocono Airport,East Stroudsburg,United States,N53,41.0358717,-75.1606789
8529,Iosco County Airport,East Tawas,United States,ECA,44.311,-83.422
8833,East Troy Municipal Airport,East Troy,United States,57C,42.7971667,-88.3726111
8343,Easton-Newnam Field Airport,Easton,United States,ESN,38.8041667,-76.069
7870,Eastport Municipal Airport,Eastport,United States,EPM,44.9101111,-67.0126944
8666,Orcas Island Airport,Eastsound,United States,ESD,48.708056,-122.910556
7083,Chippewa Valley Regional Airport,Eau Claire,United States,EAU,44.8658,-91.4843
5735,Flying Cloud Airport,Eden Prairie,United States,FCM,44.4938,-93.2726
9226,Edwards Air Force Base,Edwards Air Force Base,United States,EDW,34.905417,-117.883739
3512,Eek Airport,Eek,United States,EEK,60.213611,-162.043889
7093,Effingham Memorial Airport,Effingham,United States,1H2,39.07,-88.534
9221,Egegik Airport,Egegik,United States,EGX,58.185556,-157.375556
7154,Ekwok Airport,Ekwok,United States,KEK,59.356944,-157.471111
7100,Gillespie Airport,El Cajon,United States,SEE,32.8262222,-116.9724444
7693,El Centro Naval Airfield,El Centro,United States,NJK,32.829222,-115.671667
3758,South Arkansas Regional Airport,El Dorado,United States,ELD,33.220972,-92.813278
3696,Biggs Army Airfield,El Paso,United States,BIF,31.849528,-106.380039
3595,El Paso International Airport,El Paso,United States,ELP,31.80725,-106.377583
3559,Elfin Cove Seaplane Base,Elfin Cove,United States,ELV,58.195278,-136.3475
7136,Elim Airport,Elim,United States,ELI,64.615,-162.270556
7184,Elizabeth City Cgas Regional Airport,Elizabeth City,United States,ECG,36.260581,-76.174572
3526,Elizabethton Municipal Airport,Elizabethton,United States,0A9,36.3712222,-82.1734167
8316,Elkhart Municipal Airport,Elkhart,United States,EKI,41.719444,-86.003333
9087,Elkins Randolph County Jennings Randolph Airport,Elkins,United States,EKN,38.889444,-79.857139
3779,Elko Regional Airport,Elko,United States,EKO,40.8249,-115.792
5736,Colorado Springs East Airport,Ellicott,United States,A50,38.87,-104.41
9429,Gilmer County Airport,Ellijay,United States,49A,34.6282222,-84.5265833
8315,Elmira Corning Regional Airport,Elmira,United States,ELM,42.159889,-76.891611
3946,Ely Airport,Ely,United States,ELY,39.299722,-114.841944
7075,Ely Municipal Airport,Ely,United States,LYU,47.824444,-91.830833
7016,Emmonak Airport,Emmonak,United States,EMK,62.786111,-164.490833
7087,Emporia Municipal Airport,Emporia,United States,EMP,38.3321,-96.1912
7927,Tri-Cities Airport,Endicott,United States,CZG,42.0471,-76.0578
9419,Vance Air Force Base,Enid,United States,END,36.339167,-97.9165
3510,Ephraim-Gibraltar Airport,Ephraim,United States,3D2,45.1354167,-87.1879444
9128,Erie International Airport,Erie,United States,ERI,42.082022,-80.176217
4276,Delta County Airport,Escanaba,United States,ESC,45.722778,-87.093611
6800,Weedon Field Airport,Eufala,United States,EUF,31.5708,-85.0774
9415,Mahlon Sweet Field Airport,Eugene,United States,EUG,44.124583,-123.211972
4099,Evanston-Uinta County Burns Field Airport,Evanston,United States,EVW,41.1649,-111.0208
9411,Evansville Regional Airport,Evansville,United States,EVV,38.036997,-87.532364
4018,Snohomish County Airport,Everett,United States,PAE,47.906342,-122.281564
3822,Everglades Airpark,Everglades,United States,X01,25.8488611,-81.3902778
6892,Excursion Inlet Seaplane Base,Excursion Inlet,United States,EXI,58.420556,-135.449167
7141,Eielson Air Force Base,Fairbanks,United States,EIL,64.665667,-147.1015
3649,Fairbanks International Airport,Fairbanks,United States,FAI,64.815114,-147.856267
3832,Travis Air Force Base,Fairfield,United States,SUU,38.262692,-121.927464
3449,Fallon Naval Air Station,Fallon,United States,NFL,39.416584,-118.70098
3741,Otis Angb Airport,Falmouth,United States,FMH,41.658439,-70.521417
3725,False Pass Airport,False Pass,United States,KFP,54.8475,-163.410278
7202,Hector International Airport,Fargo,United States,FAR,46.92065,-96.8157639
4292,Four Corners Regional Airport,Farmington,United States,FMN,36.74125,-108.229944
3743,Fayetteville Regional Grannis Field Airport,Fayetteville,United States,FAY,34.9912,-78.8803
5738,Drake Field Airport,Fayetteville,United States,FYV,36.005094,-94.170059
3760,Fernandina Beach Municipal Airport,Fernandina Beach,United States,55J,30.6118333,-81.4611944
8806,Findlay Airport,Findley,United States,FDY,41.0120278,-83.6686111
7778,Fitchburg Municipal Airport,Fitchburg,United States,FIT,42.5541111,-71.7589722
8290,Fitzgerald Municipal Airport,Fitzgerald,United States,FZG,31.6839046,-83.2709036
8063,Flagler County Airport,Flagler,United States,XFL,29.2821,-81.1212
8182,Flagstaff Pulliam Airport,Flagstaff,United States,FLG,35.140318,-111.6692392
4261,Bishop International Airport,Flint,United States,FNT,42.965424,-83.743629
4089,Florence Municpal Airport,Florence,United States,6S2,43.9828168,-124.1113687
8635,Florence Regional Airport,Florence,United States,FLO,34.185361,-79.723889
3879,Fond Du Lac County Airport,Fond du Lac,United States,Field,43.7711667,-88.4884167
8742,Forest Lake Airport,Forest Lake,United States,25D,45.2477456,-92.9943853
8748,Lawson Army Airfield,Fort Benning,United States,LSF,32.337322,-84.991283
3539,Pope Field Airport,Fort Bragg,United States,POB,35.170883,-79.014472
3481,Fort Bridger Airport,Fort Bridger,United States,FBR,41.236,-110.2436
9406,Butts Army Airfield,Fort Carson,United States,FCS,38.678394,-104.756581
3503,Fort Collins Loveland Municipal  Airport,Fort Collins,United States,FNL,40.451828,-105.011336
4257,Fort Dodge Regional Airport,Fort Dodge,United States,FOD,42.5512,-94.191842
3841,Wheeler Sack Army Airfield,Fort Drum,United States,GTB,44.055619,-75.719458
3556,Felker Army Airfield,Fort Eustis,United States,FAF,37.1325,-76.608841
3518,Hood Army Airfield,Fort Hood,United States,HLR,31.138731,-97.714469
3677,Sierra Vista Muni Libby Army Airfield,Fort Huachuca,United States,FHU,31.588472,-110.344389
3601,Bicycle Lake Army Airfield,Fort Irwin,United States,BYS,35.280531,-116.630031
3435,Fort Jefferson Airport,Fort Jefferson - Dry Tortugas,United States,RBN,24.61667,-82.86667
7515,Godman Army Airfield,Fort Knox,United States,FTK,37.907058,-85.972106
3706,Fort Lauderdale Hollywood International Airport,Fort Lauderdale,United States,FLL,26.072583,-80.15275
3533,Fort Lauderdale Executive Airport,Fort Lauderdale,United States,FXE,26.197281,-80.170706
3464,Sherman Army Airfield,Fort Leavenworth,United States,FLV,39.368332,-94.914686
3800,Waynesville Regional Airport,Fort Leonardwood,United States,TBN,37.741631,-92.140736
3665,Gray Army Airfield,Fort Lewis,United States,GRF,47.079217,-122.580783
3530,Tipton Airport,Fort Meade,United States,FME,39.085386,-76.759414
3489,Page Field Airport,Fort Myers,United States,FMY,26.586611,-81.86325
3549,Southwest Florida International Airport,Fort Myers,United States,RSW,26.536167,-81.755167
3793,Marina Municipal Airport,Fort Ord,United States,OAR,36.681878,-121.762347
3433,Isbell Field Airport,Fort Payne,United States,4A9,34.4736944,-85.7213889
8301,St. Lucie County International Airport,Fort Pierce,United States,FRP,27.497472,-80.372638
8274,Polk Army Airfield,Fort Polk,United States,POE,31.044833,-93.191667
3648,Bryant Army Heliport,Fort Richardson,United States,FRN,61.266381,-149.653119
3422,Marshall Army Airfield,Fort Riley,United States,FRI,39.055275,-96.764453
3541,Henry Post Army Airfield,Fort Sill,United States,FSI,34.649833,-98.402167
3761,Fort Smith Regional Airport,Fort Smith,United States,FSM,35.336583,-94.367444
3437,Fort Stockton Pecos County Airport,Fort Stockton,United States,FST,30.915667,-102.916139
4224,Ladd Army Airfield,Fort Wainwright,United States,FBK,64.8375,-147.614444
3882,Wainwright Airport,Fort Wainwright,United States,K03,70.613378,-159.86035
3412,Fort Wayne Airport,Fort Wayne,United States,FWA,40.978472,-85.195139
4041,Smith Field Airport,Fort Wayne,United States,SMD,41.143353,-85.152778
4383,Fort Worth Alliance Airport,Fort Worth,United States,AFW,32.987778,-97.318889
8342,Fort Worth Meacham International Airport,Fort Worth,United States,FTW,32.819778,-97.362444
3723,Fort Yukon Airport,Fort Yukon,United States,FYU,66.571492,-145.250417
3420,Fostoria Metropolitan Airport,Fostoria,United States,FZI,41.1908333,-83.3930833
9185,Capital City Airport,Frankfort,United States,FFT,38.1819722,-84.9061389
8631,Franklin Airport,Franklin,United States,FKL,41.377874,-79.860362
8412,Northern Aroostook Regional Airport,Frenchville,United States,WFK,47.285556,-68.312778
7058,Fresno Yosemite International Airport,Fresno,United States,FAT,36.776194,-119.71814
3687,Friday Harbor Seaplane Base,Friday Harbor,United States,FBS,48.537222,-123.009722
8174,Friday Harbor Airport,Friday Harbor,United States,FRD,48.521944,-123.024444
7082,Eastern Slopes Regional Airport,Fryeburg,United States,IZG,43.9911389,-70.9478889
9186,Fullerton Municipal Airport,Fullerton,United States,FUL,33.521925,-117.584722
6481,Funter Bay Seaplane Base,Funter Bay,United States,FNR,58.254444,-134.897778
7140,Northeast Alabama Regional Airport,Gadsden,United States,GAD,33.9726489,-86.0890834
8295,Gainesville Regional,Gainesville,United States,GNV,29.690056,-82.271778
3472,Lee Gilmer Memorial Airport,Gainesville,United States,GVL,34.272627,-83.8302233
8308,Montgomery County Airpark,Gaithersburg,United States,GAI,39.1006,-77.09576
8143,Edward G. Pitka Sr. Airport,Galena,United States,GAL,64.736178,-156.937417
3764,Galion Municipal Airport,Galion,United States,GQQ,40.7533889,-82.7238056
8759,Gallup Municipal Airport,Gallup,United States,GUP,35.511058,-108.789308
4340,Scholes International Airport,Galveston,United States,GLS,29.265322,-94.860406
3581,Gambell Airport,Gambell,United States,GAM,63.7668,-171.733
6715,Garden City Regional Airport,Garden City,United States,GCK,37.927528,-100.724417
3497,Gary Chicago International Airport,Gary,United States,GYY,41.6163,-87.4128
6956,Germack Airport,Geneva,United States,7D9,41.7778322,-80.9039797
8543,Sussex County Airport,Georgetown,United States,GED,38.689194,-75.358889
7011,Georgetown County Airport,Georgetown,United States,GGE,33.3114018,-79.3203139
8792,Georgetown Municipal Airport,Georgetown,United States,GTU,30.678809,-97.6793837
8811,Gila Bend Municipal Airport,Gila Bend,United States,E63,32.960169,-112.673636
7983,Gillette-Campbell County Airport,Gillette,United States,GCC,44.3489167,-105.5393611
4296,Gladwin Zettel Memorial Airport,Gladwin,United States,GDW,43.9705893,-84.47502
8646,Wokal Field Glasgow International Airport,Glasgow,United States,GGW,48.2125,-106.615
5739,Glendale Municipal Airport,Glendale,United States,GEU,33.5269167,-112.2951389
9139,Dawson Community Airport,Glendive,United States,GDV,47.138611,-104.807222
7070,Naval Air Station,Glenview,United States,NBU,42.090556,-87.8225
8638,Seymour Johnson Air Force Base,Goldsboro,United States,GSB,35.339383,-77.960589
3640,Golovin Airport,Golovin,United States,GLV,64.550556,-163.007222
7185,Renner Field Airport,Goodland,United States,GLD,39.370621,-101.698992
4343,Goodnews Airport,Goodnews Bay,United States,GNU,59.1175,-161.5775
8202,Grand Canyon National Park Airport,Grand Canyon,United States,GCN,35.9523611,-112.1469722
4219,Grand Canyon Heliport,Grand Canyon,United States,JGC,35.96666666,-112.1333333
7057,Grand Canyon West Airport,Grand Canyon West,United States,GCW,35.5925,-113.4859
6448,Grand Forks International Airport,Grand Forks,United States,GFK,47.949256,-97.176111
3442,Central Nebraska Regional Airport,Grand Island,United States,GRI,40.9675,-98.3096
5740,Grand Junction Regional Airport,Grand Junction,United States,GJT,39.122413,-108.526735
4063,Grand Marais Cook County Airport,Grand Marais,United States,GRM,47.8383333,-90.3829444
6849,Gerald R Ford International Airport,Grand Rapids,United States,GRR,42.880833,-85.522806
3685,Grand Rapids Itasca County Airport,Grand Rapids MN,United States,GPZ,47.211111,-93.509722
7017,Grant County International Airport,Grant County Airport,United States,MWH,47.207708,-119.32019
3605,Grants Milan Municipal Airport,Grants,United States,GNT,35.167286,-107.901989
3439,Grayling Airport,Grayling,United States,KGX,62.894444,-160.065
7219,Great Bend Municipal Airport,Great Bend,United States,GBN,38.344167,-98.859167
7013,Great Falls International Airport,Great Falls,United States,GTF,47.482,-111.370689
3880,Austin Straubel International Airport,Green Bay,United States,GRB,44.485072,-88.129589
3653,Putnam County Airport,Greencastle,United States,4I7,39.6335556,-86.8138056
6891,Piedmont Triad Airport,Greensboro,United States,GSO,36.09775,-79.937306
4008,Majors Airport,Greenvile,United States,GVT,33.067839,-96.065333
3735,Mid Delta Regional Airport,Greenville,United States,GLH,33.4829,-90.9856
6130,Greenville-Spartanburg International Airport,Greenville,United States,GSP,34.895556,-82.218889
4034,Pitt-Greenville Airport,Greenville,United States,PGV,35.635278,-77.385278
6959,Galt Field Airport,Greenwood,United States,10C,42.4028889,-88.3751111
6893,Greenwood Leflore Airport,Greenwood,United States,GWO,33.494328,-90.084706
3588,Griffin-Spalding County Airport,Griffin,United States,6A2,33.2269722,-84.2749444
8369,Groton New London Airport,Groton CT,United States,GON,41.330056,-72.045139
4270,Grove City Airport,Grove City,United States,29D,41.1460278,-80.16775
8533,Ocean Ridge Airport,Gualala,United States,E55,38.8016111,-123.5306389
8704,Jack Edwards Airport,Gulf Shores,United States,JKA,30.2896389,-87.6717778
8460,Gulfport-Biloxi International Airport,Gulfport,United States,GPT,30.407278,-89.070111
4038,Gulkana Airport,Gulkana,United States,GKN,62.154888,-145.456639
3837,Gunnison-Crested Butte Airport,Gunnison,United States,GUC,38.533889,-106.933056
7051,Gustavus Airport,Gustavus,United States,GST,58.4253,-135.707
5960,Hagerstown Regional Richard A. Henson Field Airport,Hagerstown,United States,HGR,39.7079,-77.7295
6739,Friedman Memorial Airport,Hailey,United States,SUN,43.504444,-114.296194
6494,Haines Airport,Haines,United States,HNS,59.2438,-135.524
5963,Hamburg Inc Airport,Hamburg,United States,4G2,42.7008925,-78.9147569
8546,Clayton County Tara Field Airport,Hampton,United States,4A7,33.389099,-84.332397
9066,Langley Air Force Base,Hampton,United States,LFI,37.082881,-76.360547
3866,Hana Aiport,Hana,United States,HNM,20.795636,-156.014439
3445,Houghton County Memorial Airport,Hancock,United States,CMX,47.1684,-88.4891
5732,Hite Airport,Hanksville,United States,UT3,37.8916547,-110.3840289
9279,Valley International Airport,Harlingen,United States,HRL,26.2285,-97.654389
3560,Capital City Airport,Harrisburg,United States,CXY,40.2171389,-76.8513611
8284,Harrisburg International Airport,Harrisburg,United States,MDT,40.193494,-76.763403
3542,Boone County Airport,Harrison,United States,HRO,36.261519,-93.154728
3461,Hartford Brainard Airport,Hartford,United States,HFD,41.736722,-72.649444
3780,Hattiesburg Bobby L. Chain Municipal Airport,Hattiesburg,United States,HBG,31.2649444,-89.2528889
8951,Hattiesburg Laurel Regional Airport,Hattiesburg/Laurel,United States,PIB,31.4671,-89.3371
5759,Havre City County Airport,Havre,United States,HVR,48.542983,-109.762342
3604,Jack Northrop Field Hawthorne Municipal Airport,Hawthorne,United States,HHR,33.922839,-118.335186
3508,Yampa Valley Airport,Hayden,United States,HDN,40.481181,-107.21766
4339,Hays Regional Airport,Hays,United States,HYS,38.8422,-99.2732
7014,Hayward Executive Airport,Hayward,United States,HWD,37.65888889,-122.1216667
8982,Hazleton Municipal Airport,Hazleton,United States,HZL,40.989167,-76.0025
8473,Healy River Airport,Healy,United States,HKB,63.8675,-148.968889
7242,Heber City Municipal Airport,Heber,United States,36U,40.4818056,-111.4288056
8803,Helena Regional Airport,Helena,United States,HLN,46.606806,-111.98275
3504,Henderson Executive Airport,Henderson,United States,HSH,35.972778,-115.134444
7999,Chisholm Hibbing Airport,Hibbing,United States,HIB,47.3866,-92.838994
3650,Hickory Regional Airport,Hickory,United States,HKY,35.741147,-81.38955
3547,Portland Hillsboro Airport,Hillsboro,United States,HIO,45.540394,-122.949825
8122,Hillsboro Municipal Airport,Hillsboro,United States,INJ,32.083486,-97.097228
3702,Hilo International Airport,Hilo,United States,ITO,19.721375,-155.048469
3415,Hilton Head Airport,Hilton Head,United States,HHH,32.216,-80.752
8314,Hobart Municipal Airport,Hobart,United States,HBR,34.991308,-99.051353
3850,Lea County Regional Airport,Hobbs,United States,HOB,32.687528,-103.217028
3749,Tulip City Airport,Holland,United States,BIV,42.7427778,-86.1078333
7721,Hollis Seaplane Base,Hollis,United States,HYL,55.481667,-132.646111
7145,Frazier Lake Airpark,Hollister,United States,1C9,54.01333333,-124.7683333
8981,North Perry Airport,Hollywood,United States,HWO,26.001222,-80.240722
3468,Holy Cross Airport,Holy Cross,United States,HCR,62.1883,-159.775
5962,Homer Airport,Homer,United States,HOM,59.645556,-151.476583
3664,Homestead Air Reserve Base,Homestead,United States,HST,25.48855,-80.383567
3798,Hondo Municipal Airport,Hondo,United States,HDO,29.3591,-99.1775
8042,Honolulu International Airport,Honolulu,United States,HNL,21.318681,-157.922428
3728,Hoonah Airport,Hoonah,United States,HNH,58.096111,-135.409722
7142,Hooper Bay Airport,Hooper Bay,United States,HPB,61.5239,-166.147
6716,Campbell Army Airfield,Hopkinsville,United States,HOP,36.668567,-87.496183
3519,Bowerman Field Airport,Hoquiam,United States,HQM,46.9711944,-123.9365556
4275,Memorial Field Airport,Hot Springs,United States,HOT,34.478,-93.0962
5741,Roscommon County Airport,Houghton Lake,United States,HTL,44.359806,-84.671112
3668,Houlton International Airport,Houlton,United States,HUL,46.123083,-67.792056
3509,Andrau Airport,Houston,United States,AAP,29.43,-95.35
9225,David Wayne Hooks Field Airport,Houston,United States,DWH,30.063746,-95.554276
4065,Ellington Field Airport,Houston,United States,EFD,29.607333,-95.15875
3572,William P. Hobby Airport,Houston,United States,HOU,29.645419,-95.278889
3566,George Bush Intercontinental Airport,Houston,United States,IAH,29.984433,-95.341442
3550,West Houston Airport,Houston,United States,IWS,29.818194,-95.672611
4226,Columbia County Airport,Hudson,United States,HCC,42.2913,-73.7103
8056,Hughes Airport,Hughes,United States,HUS,66.039167,-154.264722
7107,Hunter Army Airfield,Savannah,United States,SVN,32.01,-81.145683
3441,Tri-State Milton J. Ferguson Field Airport,Huntington,United States,HTS,38.3667,-82.558
5742,Huntsville International Airport,Huntsville,United States,HSV,34.6371944,-86.7750556
4113,Huron Regional Airport,Huron,United States,HON,44.3852,-98.228542
3491,Huslia Airport,Huslia,United States,HSL,65.697778,-156.351389
7108,Hutchinson Municipal Airport,Hutchinson,United States,HUT,38.0655,-97.8606
7035,Hydaburg Seaplane Base,Hydaburg,United States,HYG,55.206389,-132.828333
7148,Hyder Seaplane Base,Hyder,United States,WHD,55.903333,-130.006667
7149,Icy Bay Airport,Icy Bay,United States,ICY,59.968889,-141.661667
7197,Idaho Falls Regional Airport,Idaho Falls,United States,IDA,43.514556,-112.07075
4100,Igiugig Airport,Igiugig,United States,IGG,59.324,-155.902
6763,Iliamna Airport,Iliamna,United States,ILI,59.754356,-154.910961
3429,Immokalee Airport,Immokalee ,United States,IMM,26.433889,-81.401389
9102,Imperial County Airport,Imperial,United States,IPL,32.834219,-115.578744
3689,Indian Mountain LRRS Airport,Indian Mountains,United States,UTO,65.992794,-153.704289
3419,Creech Air Force Base,Indian Springs,United States,INS,36.587183,-115.673353
3496,Indianapolis International Airport,Indianapolis,United States,IND,39.717331,-86.294383
3585,Indianapolis Metropolitan Airport,Indianapolis,United States,UMP,39.935278,-86.045
8409,Falls International Airport,International Falls,United States,INL,48.566186,-93.403067
3535,Inyokern Airport,Inyokern,United States,IYK,35.658889,-117.829444
7120,Iowa City Municipal Airport,Iowa City,United States,IOW,41.639244,-91.546503
8925,Ford Airport,Iron Mountain,United States,IMT,45.8183611,-88.1145556
6837,Gogebic Iron County Airport,Ironwood,United States,IWD,46.5274747,-90.1313967
6851,Long Island Mac Arthur,Islip,United States,ISP,40.79525,-73.100222
3857,Ithaca Tompkins Regional Airport,Ithaca,United States,ITH,42.491028,-76.458444
3947,Jackson Hole Airport,Jacksn Hole,United States,JAC,43.60733333,-110.73775
4027,Jackson Evers International Airport,Jackson,United States,JAN,32.311167,-90.075889
3580,Reynolds Field Airport,Jackson,United States,JXN,42.260556,-84.460556
8499,Mc Kellar Sipes Regional,Jackson,United States,MKL,35.599889,-88.915611
3704,Jacksonville International Airport,Jacksonville,United States,JAX,30.494056,-81.687861
3712,Little Rock Air Force Base,Jacksonville,United States,LRF,34.916944,-92.149722
3479,Jacksonville Naval Air Station,Jacksonville,United States,NIP,30.235834,-81.680556
3703,Cecil Field Airport,Jacksonville,United States,NZC,30.2187,-81.8767
7496,Albert J. Ellis Airport,Jacksonville,United States,OAJ,34.829164,-77.612139
4386,Chautauqua County-Jamestown Airport,Jamestown,United States,JHW,42.153333,-79.258056
7059,Jamestown Regional Airport,Jamestown,United States,JMS,46.9297,-98.6782
5745,Southern Wisconsin Regional Airport,Janesville,United States,JVL,42.62025,-89.0415556
7840,Pickens County Airport,Jasper,United States,JZP,34.4534722,-84.4572222
8601,Jackson County Airport,Jefferson,United States,19A,34.1758638,-83.5615972
8251,Jefferson City Memorial Airport,Jefferson City,United States,JEF,38.5912,-92.1561
6447,Jekyll Island Airport,Jekyll Island,United States,09J,31.0744722,-81.4277778
8799,Jesup-Wayne County Airport,Jesup,United States,JES,31.553889,-81.8825
8511,John Murtha Johnstown-Cambria County Airport,Johnstown,United States,JST,40.316111,-78.833889
4169,Regional Airport,Joliet,United States,JOT,41.517778,-88.175556
8496,Jonesboro Municipal Airport,Jonesboro,United States,JBR,35.831708,-90.646417
3591,Joplin Regional Airport,Joplin,United States,JLN,37.151814,-94.498269
4354,Juneau International Airport,Juneau,United States,JNU,58.354972,-134.576278
3492,Kahului Airport,Kahului,United States,OGG,20.89865,-156.430458
3456,Lee C Fine Memorial Airport,Kaiser Lake Ozark,United States,AIZ,38.096035,-92.5494875
7991,Kake Airport,Kake,United States,AFE,56.961389,-133.910278
7143,Kake Seaplane Base,Kake,United States,KAE,56.973056,-133.945556
7243,Kalamazoo Airport,Kalamazoo,United States,AZO,42.234875,-85.552058
4039,Glacier Park International Airport,Kalispell,United States,FCA,48.310472,-114.256
4127,Kalskag Airport,Kalskag,United States,KLG,61.5363,-160.341
5964,Kaltag Airport,Kaltag,United States,KAL,64.3191,-158.741
6717,Waimea Kohala Airport,Kamuela,United States,MUE,20.001328,-155.668108
3545,Kaneohe Bay Marine Corps Air Station,Kaneohe Bay,United States,NGF,21.450453,-157.768
3835,Greater Kankakee Airport,Kankakee,United States,IKK,41.071389,-87.846278
3639,Kansas City International Airport,Kansas City,United States,MCI,39.297606,-94.713905
3458,Downtown Airport,Kansas City,United States,MKC,39.1275,-94.598889
4293,Karuluk Airport,Karluk,United States,KYK,57.566944,-154.450278
7161,Kasigluk Airport,Kasigluk,United States,KUK,60.873333,-162.524444
7094,Kearney Municipal Airport,Kearney,United States,EAR,40.727,-99.0068
6129,Dillant Hopkins Airport,Keene,United States,EEN,72.270833,42.898333
8888,Kelso Longview Airport,Kelso,United States,KLS,46.118,-122.898389
7938,Kenai Municipal Airport,Kenai,United States,ENA,60.573111,-151.245
3628,Kendall Tamiami Executive Airport,Kendall-tamiami,United States,TMB,25.647889,-80.432777
3869,Kenmore Air Harbor Seaplane Base,Kenmore,United States,KEH,47.7548,-122.259
7028,Kenosha Regional Airport,Kenosha,United States,ENW,42.5956944,-87.9278056
6878,Kent State Airport,Kent,United States,1G3,41.1513889,-81.4151111
8705,Keokuk Municipal Airport,Keokuk,United States,EOK,40.4599078,-91.4285011
8667,Kerrville Municipal Airport,Kerrville,United States,ERV,29.9766667,-99.0854722
7009,Ketchikan International Airport,Ketchikan,United States,KTN,55.355556,-131.71375
3808,Ketchikan Harbor Seaplane Base,Ketchikan,United States,WFB,55.344444,-131.663333
7249,Key West International Airport,Key West,United States,EYW,24.556111,-81.759556
3875,Key West Naval Air Station,Key West,United States,NQX,24.575834,-81.688889
3746,Bob Baker Memorial Airport,Kiana,United States,IAN,66.975833,-160.436667
7179,First Flight Airport,Kill Devil Hills,United States,FFA,36.02,-75.67
7523,Robert Gray Army Airfield,Killeen,United States,GRK,31.06725,-97.828917
3775,King Cove Airport,King Cove,United States,KVC,55.1163,-162.266
6765,King Salmon Airport,King Salmon,United States,AKN,58.676778,-156.649278
3794,Kingman Airport,Kingman,United States,IGM,35.2595,-113.938
6132,Kingsville Naval Air Station,Kingsville,United States,NQI,27.507223,-97.809723
3540,Kinston Regional Jetport,Kinston,United States,ISO,35.331389,-77.608889
7522,Kipnuk Airport,Kipnuk,United States,KPN,59.933056,-164.030556
7201,Kirksville Regional Airport,Kirksville,United States,IRK,40.0935,-92.5449
5744,Kirtland Air Force Base,Albuquerque,United States,IKR,35.040222,-106.609194
3529,Kissimmee Gateway Airport,Kissimmee,United States,ISM,28.289806,-81.437083
6993,Kitoi Bay Seaplane Base,Kitoi Bay,United States,KKB,58.190833,-152.370556
7168,Kivalina Airport,Kivalina,United States,KVL,67.7362,-164.563
6719,Klamath Falls Airport,Klamath Falls,United States,LMT,42.1561,-121.733
5750,Klawock Seaplane Base,Klawock,United States,AQC,55.554658,-133.101693
7244,Klawock Airport,Klawock,United States,KLW,55.579167,-133.076111
7205,Whiteman Air Force Base,Knobnoster,United States,SZL,38.730306,-93.547864
3586,Knoxville Downtown Island Airport,Knoxville,United States,DKX,35.9638333,-83.8736667
8296,McGhee Tyson Airport,Knoxville,United States,TYS,35.810972,-83.994028
3676,Kobuk Airport,Kobuk,United States,OBU,66.912222,-156.897222
7180,Kodiak Airport,Kodiak,United States,ADQ,57.749967,-152.493856
3531,Koliganek Airport,Koliganek,United States,KGK,59.726667,-157.259444
7101,Kona International Airport,Kona,United States,KOA,19.738767,-156.045631
3514,Kongiganak Airport,Kongiganak,United States,KKH,59.960833,-162.881111
7213,Kotlik Airport,Kotlik,United States,KOT,63.030556,-163.532778
7207,Ralph Wien Memorial Airport,Kotzebue,United States,OTZ,66.884678,-162.59855
3693,Koyuk Alfred Adams Airport,Koyuk,United States,KKA,64.939444,-161.154167
7190,Koyukuk Airport,Koyukuk,United States,KYU,64.875833,-157.730556
7208,Kulik Lake Airport,Kulik Lake,United States,LKK,58.96591,-155.108089
9354,Ugnu-Kuparuk Airport,Kuparuk,United States,UUK,70.330833,-149.5975
7089,Kwethluk Airport,Kwethluk,United States,KWT,60.790278,-161.443611
7095,Kwigillingok Airport,Kwigillingok,United States,KWK,59.876389,-163.168611
7096,La Crosse Municipal Airport,La Crosse,United States,LSE,43.878986,-91.256711
4044,La Junta Municipal Airport,La Junta,United States,LHX,38.049719,-103.509431
4227,Brackett Field Airport,La Verne,United States,POC,34.0916667,-117.7817778
8798,Barwick Lafayette Airport,LaFayette,United States,9A5,34.6884792,-85.2903319
8311,Purude University Airport,Lafayette,United States,LAF,40.4123056,-86.9368889
6873,Lafayette Regional Airport,Lafayette,United States,LFT,30.205278,-91.987611
3493,LaGrange-Callaway Airport,LaGrange,United States,LGC,33.0088611,-85.0726111
8302,Kapalua Airport,Lahania-kapalua,United States,JHM,20.962936,-156.673031
3796,Lake Charles Regional Airport,Lake Charles,United States,LCH,30.126112,-93.223335
3513,Lake City Municipal Airport,Lake City,United States,LCQ,30.181944,-82.576944
6994,Grand Geneva Resort Airport,Lake Geneva,United States,C02,42.6149167,-88.3895833
6875,Lake Havasu City Airport,Lake Havasu City,United States,HII,34.5711111,-114.3582778
7586,Minchumina Airport,Lake Minchumina,United States,MHM,63.886111,-152.301944
7245,Lake Placid Airport,Lake Placid,United States,LKP,44.264444,-73.961944
8777,Lake Wales Municipal Airport,Lake Wales,United States,X07,27.8938056,-81.6203889
8558,Lakehurst Naval Air Engineering Station,Lakehurst,United States,NEL,40.033333,-74.353333
3812,Lakeland Linder Regional Airport,Lakeland,United States,LAL,27.9889167,-82.0185556
7732,South Lakeland Airport,Lakeland,United States,X49,27.9333581,-82.0439739
8566,Lamar Municipal Airport,Lamar,United States,LAA,38.069694,-102.6885
4342,Lanai Airport,Lanai,United States,LNY,20.785611,-156.951419
3851,Lancaster Airport,Lancaster,United States,LNS,40.1217,-76.2961
5751,Lansing Municipal Airport,Lansing,United States,IGQ,41.5349167,-87.5295278
8606,Capital City Airport,Lansing,United States,LAN,42.7787,-84.587357
3544,Laramie Regional Airport,Laramie,United States,LAR,41.3121,-105.675
5746,Laredo International Airport,Laredo,United States,LRD,27.54375,-99.461556
3691,Larsen Bay Airport,Larsen Bay,United States,KLN,57.535,-153.976667
7162,Las Cruces International Airport,Las Cruces,United States,LRU,32.289417,-106.921972
4228,Mc Carran International Airport,Las Vegas,United States,LAS,36.080056,-115.15225
3877,Nellis Air Force Base,Las Vegas,United States,LSV,36.236197,-115.034253
3814,Las Vegas Municipal Airport,Las Vegas,United States,LVS,35.654222,-105.142389
4225,North Las Vegas Airport,Las Vegas,United States,VGT,36.2106944,-115.1944444
6877,Arnold Palmer Regional Airport,Latrobe,United States,LBE,40.2759,-79.4048
8366,Lawrence Municipal Airport,Lawrence,United States,LWM,42.7171944,-71.1234167
8288,Gwinnett County Airport,Lawrenceville,United States,LZU,33.9780761,-83.9623772
7847,Lawton-Fort Sill Regional Airport,Lawton,United States,LAW,34.5677144,-98.4166367
4256,Alitak Seaplane Base,Lazy Bay,United States,ALZ,56.899444,-154.247778
7166,Lebanon Municipal Airport,Lebanon,United States,LEB,43.6261,-72.3042
5749,Lebanon State Airport,Lebanon,United States,S30,44.3179,-122.5577
9410,Leesburg Executive Airport,Leesburg,United States,JYO,39.078,-77.558
8835,Lemoore Naval Air Station,Lemoore,United States,NLC,36.333012,-119.95208
3516,Levelock Airport,Levelock,United States,KLL,59.128056,-156.858611
7102,Greenbrier Valley Airport,Lewisburg,United States,LWB,37.858333,-80.399444
6958,Garland Airport,Lewiston,United States,8M8,44.8065278,-84.2761944
8645,Lewiston Maine Airport,Lewiston,United States,LEW,44.0484728,-70.2835075
8632,Lewiston Nez Perce County Airport,Lewiston,United States,LWS,46.3745,-117.015389
3945,Lewistown Municipal Airport,Lewistown,United States,LWT,47.0493,-109.467
5752,Blue Grass Airport,Lexington,United States,LEX,38.0365,-84.605889
4017,Liberal Municipal Airport,Liberal,United States,LBL,37.044222,-100.95986
4341,Lihue Airport,Lihue,United States,LIH,21.975983,-159.338958
3602,Lima Allen County Airport,Lima,United States,AOH,40.707478,-84.0270781
8784,Lincoln Regional Airport,Lincoln,United States,LHM,38.9091667,-121.3513333
3543,Linden Airport,Linden,United States,LDJ,40.6174472,-74.2445942
8550,Adams Field Airport,Little Rock,United States,LIT,34.729444,-92.224306
3660,Suwannee County Airport,Live Oak,United States,24J,30.300125,-83.0246944
8125,Livermore Municipal Airport,Livermore,United States,LVK,37.41362,-121.49133
7629,Livingood Airport,Livingood,United States,LIV,65.531111,-148.541111
7109,Mission Field Airport,Livingston,United States,LVM,45.6993889,-110.4483056
7717,William T. Piper Memorial Airport,Lock Haven,United States,LHV,41.1357778,-77.4223056
8532,Lewis University Airport,Lockport,United States,LOT,41.606326,-88.083003
7886,Logan-Cache Airport,Logan,United States,LGU,41.791,-111.852
6998,Lompoc Airport,Lompoc,United States,LPC,34.6656,-120.4675
8771,Vandenberg Air Force Base,Lompoc,United States,VBG,34.737333,-120.584306
3810,London-Corbin Airport,London,United States,LOZ,37.0868889,-84.0773889
8410,Tri-County Regional Airport,Lone Rock,United States,LNR,43.211667,-90.181667
8493,Long Beach Airport,Long Beach,United States,LGB,33.817722,-118.151611
3582,Long Lake Airport,Long Lake,United States,NY9,43.9750617,-74.42044
8778,East Texas Regional Airport,Longview,United States,GGG,32.384014,-94.711486
3465,Lopez Island Airport,Lopez,United States,LPS,48.4839,-122.938
6136,Lorain County Regional Airport,Lorain-Elyria,United States,LPR,41.3442778,-82.1776389
8542,Los Alamos Airport,Los Alamos,United States,LAM,35.8798019,-106.2694153
7584,Los Angeles International Airport,Los Angeles,United States,LAX,33.942536,-118.408075
3484,Whiteman Airport,Los Angeles,United States,WHP,34.2593253,-118.4134331
8220,Acadiana Regional Airport,Louisiana,United States,ARA,30.037758,-91.883896
3471,Bowman Field Airport,Louisville,United States,LOU,38.228,-85.663722
3600,Louisville International Airport,Louisville,United States,SDF,38.1740858,-85.7364989
4014,Lowell City Airport,Lowell,United States,24C,42.95392,-85.3439058
8647,Lubbock Preston Smith International Airport,Lubbock,United States,LBB,33.663639,-101.822778
3829,Angelina County Airport,Lufkin,United States,LFK,31.234014,-94.75
3651,Lumberton Municipal Airport,Lumberton,United States,LBT,34.6098056,-79.0595556
8517,Lynchburg Regional Preston Glenn Field Airport,Lynchburg,United States,LYH,37.3267,-79.2004
5753,Lynden Airport,Lynden,United States,38W,48.9558961,-122.4581183
7956,Mackinac Island Airport,Mackinac Island,United States,MCD,45.8649344,-84.637344
6850,Mc Minnville Municipal Airport,Mackminnville,United States,MMV,45.194444,-123.135944
3883,Macomb Municipal Airport,Macomb,United States,MQB,40.5200833,-90.6523889
6861,Middle Georgia Regional Airport,Macon,United States,MCN,32.69285,-83.649211
3754,Menominee Marinette Twin County Airport,Macon,United States,MNM,45.12665,-87.638443
3618,Robins Air Force Base,Macon,United States,WRB,32.640144,-83.59185
3884,Madera Municipal Airport,Madera,United States,MAE,36.9886111,-120.1124444
8221,Madison GA Municipal Airport,Madison,United States,52A,33.612125,-83.4604444
8512,Dane County Regional Truax Field Airport,Madison,United States,MSN,43.139858,-89.337514
3459,Malad City Airport,Malad City,United States,MLD,42.17,-112.289
7000,Mammoth Yosemite Airport,Mammoth Lakes,United States,MMH,37.624049,-118.837772
7081,Manassas Regional Airport,Manassas,United States,MNZ,38.721389,-77.515556
9251,Manchester Regional Airport,Manchester,United States,MHT,42.932556,-71.435667
4011,Manhattan Reigonal Airport,Manhattan,United States,MHK,39.140972,-96.670833
4050,Manistee County-Blacker Airport,Manistee,United States,MBL,44.2725,-86.246944
7054,Manley Hot Springs Airport,Manley Hot Springs,United States,MLY,64.9975,-150.644167
7246,Manokotak Airport,Manokotak,United States,KMO,58.990278,-159.05
7103,Mansfield Municipal Airport,Mansfield,United States,1B9,42.0001331,-71.1967714
8279,Mansfield Lahm Regional Airport,Mansfield,United States,MFD,40.8214167,-82.5166389
4254,Dare County Regional Airport,Manteo,United States,MQI,35.5514,-75.4173
9417,Pinal Airpark,Marana,United States,MZJ,32.509722,-111.325278
9138,Florida Keys Marathon Airport,Marathon,United States,MTH,24.726111,-81.051389
7069,Marco Islands Airport,Marco Island Airport,United States,MRK,25.9950278,-81.6725278
8641,Dobbins Air Reserve Base,Marietta,United States,MGE,33.915382,-84.516319
3666,Williamson Country Regional Airport,Marion,United States,MWA,37.7549569,-89.0110936
6825,Mariposa Yosemite Airport,Mariposa,United States,MPI,37.3039,-120.0222
7630,Sawyer International Airport,Marquette,United States,MQT,46.353611,-87.395278
6838,Marshall Don Hunter Sr. Airport,Marshall,United States,MLL,61.8646418,-162.026111
7097,Brooks Field Airport,Marshall,United States,RMY,42.2511932,-84.9554443
8559,Marshfield Municipal Airport,Marshfield,United States,GHG,42.09825,-70.6721389
8285,Marshfield Municipal Airport,Marshfield,United States,MFI,44.6368797,-90.1893267
8653,Eastern WV Regional Airport,Martinsburg,United States,MRB,39.2407,-77.591
7415,Hurlburt Field Airport,Mary Esther,United States,HRT,30.427803,-86.689278
3507,Beale Air Force Base,Marysville,United States,BAB,39.136089,-121.436567
3638,Mason City Municipal Airport,Mason City,United States,MCW,43.2247,-93.4067
6500,Massena International Airport,Massena,United States,MSS,44.935833,-74.845547
3546,Desert Aire Airport,Mattawa,United States,M94,46.4124,-119.5518
9409,Mc Alester Regional Airport,Mcalester,United States,MLC,34.882403,-95.783463
3629,Mc Allen Miller International Airport,Mcallen,United States,MFE,26.175833,-98.238611
3826,McCall Municipal Airport,McCall,United States,MYL,44.889722,-116.101389
7079,McCarthy Airport,McCarthy,United States,MXY,61.4370608,-142.9030737
6846,McCook Regional Airport,McCook,United States,MCK,40.206389,-100.592222
7068,McGrath Airport,Mcgrath,United States,MCG,62.9529,-155.606
5965,McKinley National Park Airport,McKinley Park,United States,MCL,63.732757,-148.91129
8050,Burrello-Mechanicville Airport,Mechanicville,United States,K27,42.893133,-73.66845
9180,Rogue Valley International Airport,Medford,United States,MFR,42.374228,-122.8735
4101,Mekoryuk Airport,Mekoryuk,United States,MYU,60.3714,-166.271
6720,Melbourne International Airport,Melbourne,United States,MLB,28.102753,-80.645258
3671,Memphis International Airport,Memphis,United States,MEM,35.042417,-89.976667
3473,Merced Municipal Airport,Merced,United States,MCE,37.284722,-120.513889
7122,Castle Airport,Merced,United States,MER,37.380481,-120.568189
3683,Key Field Airport,Meridian,United States,MEI,32.332624,-88.751868
4335,Meridian Naval Air Station,Meridian,United States,NMM,32.552083,-88.555557
3847,Phoenix-Mesa Gateway Airport,Mesa,United States,AZA,33.307833,-111.655
6505,Mesa Falcon Field Airport,Mesa,United States,FFZ,33.46080017,-111.7279968
8869,Metlakatla Seaplane Base,Metakatla,United States,MTM,55.131111,-131.578056
7146,Mexia - Limestone County Airport,Mexia,United States,LXY,31.6411783,-96.5144594
7008,Miami International Airport,Miami,United States,MIA,25.79325,-80.290556
3576,Miami Seaplane Base,Miami,United States,MPB,25.7783,-80.1703
7923,Opa Locka Airport,Miami,United States,OPF,25.907,-80.278389
3791,Dade Collier Training And Transition Airport,Miami,United States,TNT,25.861806,-80.897
3721,Michigan City Municipal Airport,Michigan City,United States,MGC,41.7033,-86.8211
6844,Randall Airport,Middletown,United States,06N,41.431912,-74.3915611
8531,Midland International Airport,Midland,United States,MAF,31.942528,-102.201914
3652,Frank Wiley Field Airport,Miles City,United States,MLS,46.428,-105.886
5755,Baldwin County Airport,Milledgeville,United States,MLJ,33.154225,-83.2414139
8303,Millington Regional Jetport,Millington,United States,NQA,35.356667,-89.870278
3778,Millinocket Municipal,Millinocket,United States,MLT,45.647836,-68.685561
3551,Millville Municipal Airport,Millville,United States,MIV,39.367806,-75.072222
3679,Whiting Field Naval Air Station,Milton,United States,NSE,30.724167,-87.021944
3444,General Mitchell International Airport,Milwaukee,United States,MKE,42.947222,-87.896583
3717,Lawrence J Timmerman Airport,Milwaukee,United States,MWC,43.1103889,-88.0344167
7839,Mineral Wells Airport,Mineral Wells,United States,MWL,32.781606,-98.060175
3766,Minneapolis St. Paul International Airport,Minneapolis,United States,MSP,44.881956,-93.221767
3858,Lakeland Airport,Minocqua - Woodruff,United States,ARV,45.927778,-89.730833
7020,Minot Air Force Base,Minot,United States,MIB,48.415572,-101.357661
3637,Minot International Airport,Minot,United States,MOT,48.259378,-101.280333
3498,Minto Airport,Minto,United States,MNT,65.143611,-149.37
7110,Miramar Marine Corps Air Station,Miramar,United States,NKX,32.867694,-117.14175
3505,Missoula International Airport,Missoula,United States,MSO,46.916306,-114.090556
4216,Canyonlands Field Airport,Moab,United States,CNY,38.755,-109.754722
7074,Mobile Downtown Airport,Mobile,United States,BFM,30.626783,-88.068092
3452,Mobile Regional Airport,Mobile,United States,MOB,30.691231,-88.242814
3782,Modesto City County Harry Sham Airport,Modesto,United States,MOD,37.625817,-120.954422
3816,Mojave Airport,Mojave,United States,MHV,35.059364,-118.151856
7026,Quad City International Airport,Moline,United States,MLI,41.448528,-90.507539
4072,Kalaupapa Airport,Molokai,United States,LUP,21.211,-156.974
5989,Molokai Airport,Molokai,United States,MKK,21.152886,-157.096256
3705,Monroe Regional Airport,Monroe,United States,MLU,32.510864,-92.037689
3732,Pittsburgh-Monroeville Airport,Monroeville,United States,4G0,40.4526389,-79.7749167
8537,Monterey Peninsula Airport,Monterey,United States,MRY,36.587,-121.842944
3948,Orange County Airport,Montgomery,United States,MGJ,41.5099884,-74.2646444
8283,Montgomery Regional Airport ,Montgomery,United States,MGM,32.3006389,-86.3939722
4115,Maxwell Air Force Base,Montgomery,United States,MXF,32.382944,-86.365778
3500,Edward F. Knapp State Airport,Montpelier,United States,MPV,44.203503,-72.562328
3606,Montrose Regional Airport,Montrose,United States,MTJ,38.509794,-107.894242
6880,Foothills Regional Airport,Morganton,United States,MRN,35.8202336,-81.6115119
8319,Morgantown Municipal Walter L. Bill Hart Field Airport,Morgantown,United States,MGW,39.642908,-79.916314
4284,Morgantown Airport,Morgantown,United States,O03,40.1570414,-75.8704892
8551,Morristown Municipal Airport,Morristown,United States,MMU,40.79935,-74.4148747
7657,Morrisville Stowe State Airport,Morrisville,United States,MVL,44.535,-72.614
8187,Moser Bay Seaplane Base,Moser Bay,United States,KMY,57.025556,-154.145833
7169,Moultrie Municipal Airport,Moultrie,United States,MGR,31.0849167,-83.80325
8169,Selfridge Air National Guard Base,Mount Clemens,United States,MTC,42.608333,-82.8355
3742,South Jersey Regional Airport,Mount Holly,United States,VAY,39.9428889,-74.84575
8548,Mount Pleasant Regional Airport,Mount Pleasant,United States,LRO,32.5387,-79.4697
9413,Mountain Home Air Force Base,Mountain Home,United States,MUO,43.043603,-115.872431
3823,Mountain Home Municipal Airport,Mountain Home,United States,U76,43.1316111,-115.7305671
8222,Moffett Federal Airfield,Mountain View,United States,NUQ,37.416142,-122.049139
3783,Mountain Village Airport,Mountain Village,United States,MOU,62.0954,-163.682
5966,Muir Army Airfield,Muir,United States,MUI,40.434811,-76.569411
3795,Delaware County Airport,Muncie,United States,MIE,40.2424722,-85.39575
6871,French Valley Airport,Murrieta-Temecula,United States,RBK,33.5741791,-117.1284732
7769,Northwest Alabama Regional Airport,Muscle Shoals,United States,MSL,34.7453,-87.6102
5756,Muskegon County Airport,Muskegon,United States,MKG,43.1695,-86.2382
5754,Davis Field Airport,Muskogee,United States,MKO,35.656489,-95.366656
3534,Myrtle Beach International Airport,Myrtle Beach,United States,MYR,33.67975,-78.928333
3515,Nantucket Memorial Airport,Nantucket,United States,ACK,41.253053,-70.060181
3517,Napa County Airport,Napa,United States,APC,38.2131944,-122.2806944
7658,Naples Municipal,Naples,United States,APF,26.152619,-81.775294
4012,Boire Field Airport,Naval Air Stationhua,United States,ASH,42.78175,-71.5147778
8287,Naval Air Stationhville International Airport,Naval Air Stationhville,United States,BNA,36.124472,-86.678194
3690,Nelson Lagoon,Nelson Lagoon,United States,NLG,56.0075,-161.160278
7203,New Bedford Regional Airport,New Bedford,United States,EWB,41.6761,-70.9569
5737,Craven County Regional,New Bern,United States,EWN,35.072972,-77.042944
3730,Tweed-New Haven Airport,New Haven,United States,HVN,41.26375,-72.886806
4006,Louis Armstrong New Orleans International Airport,New Orleans,United States,MSY,29.993389,-90.258028
3861,New Orleans Naval Air Station,New Orleans,United States,NBG,29.825333,-90.035
3768,Lakefront Airport,New Orleans,United States,NEW,30.0424167,-90.02825
9188,Harry Clever Field Airport,New Philadelpha,United States,PHD,40.4701667,-81.4199444
8312,New Stuyahok Airport,New Stuyahok,United States,KNW,59.4499,-157.328
7767,John F. Kennedy International Airport,New York,United States,JFK,40.639751,-73.778925
3797,West 30th St. Heliport,New York,United States,JRA,40.7545,-74.0071
7729,Wall Street Heliport,New York,United States,JRB,40.701214,-74.009028
3993,La Guardia Airport,New York,United States,LGA,40.777245,-73.872608
3697,East 34th Street Heliport,New York,United States,TSS,40.7425,-73.971944
4032,Newark Liberty International Airport,Newark,United States,EWR,40.6925,-74.168667
3494,Luce County Airport,Newberry,United States,ERY,46.311199,-85.457298
8747,Stewart International Airport,Newburgh,United States,SWF,41.504094,-74.104839
3661,Plum Island Airport,Newburyport,United States,2B2,42.7953611,-70.8394444
9352,Coweta County Airport,Newnan,United States,CCO,33.3115656,-84.7697554
8513,Newport Municipal Airport,Newport,United States,ONP,44.580361,-124.057917
7086,Newport News Williamsburg International Airport,Newport News,United States,PHF,37.131894,-76.492989
3633,Newport State Airport,Newport,United States,UUU,41.533056,-71.282222
4266,Newtok Airport,Newtok,United States,WWT,60.939167,-164.641111
8203,Newton City-County Airport,Newton,United States,EWK,38.0570785,-97.2752278
9399,Niagara Falls International Airport,Niagara Falls,United States,IAG,43.107333,-78.946194
3630,Nightmute Airport,Nightmute,United States,NME,60.471111,-164.700833
8199,Nikolai Airport,Nikolai,United States,NIB,63.010833,-154.383889
7214,Nikolski Air Station,Nikolski,United States,IKO,52.941667,-168.848889
7196,Noatak Airport,Noatak,United States,WTK,67.5661,-162.975
6725,Nogales International Airport,Nogales,United States,OLS,31.417722,-110.84789
3788,Nome Airport,Nome,United States,OME,64.512203,-165.445247
3615,Nondalton Airport,Nondalton,United States,NNL,59.966944,-154.851667
7210,Robert Curtis Memorial Airport,Noorvik,United States,ORV,66.8175,-161.022222
3827,Norfolk International Airport,Norfolk,United States,ORF,36.894611,-76.201222
3611,Southwest Oregon Regional Airport,North Bend,United States,OTH,43.4171,-124.246
5757,Quonset State Airport,North Kingstown,United States,OQU,41.5971389,-71.4121389
8278,Grand Strand Airport,North Myrtle Beach,United States,CRE,33.81175,-78.7239444
8604,North Platte Regional Airport Lee Bird Field Airport,North Platte,United States,LBF,41.1262,-100.684
5748,North Whale Seaplane Base,North Whale Pass,United States,WWP,56.116389,-133.121667
7152,Northway Airport,Northway,United States,ORT,62.961334,-141.929136
3568,Norwood Memorial Airport,Norwood,United States,OWD,42.1905278,-71.1729444
8280,Nuiqsut Airport,Nuiqsut,United States,NUI,70.21,-151.005556
7092,Nulato Airport,Nulato,United States,NUL,64.729444,-158.074167
7111,Spirit Of St Louis Airport,Null,United States,SUS,38.662119,-90.652044
7015,Sheldon Point Airport,Nunam Iqua,United States,SXP,62.520556,-164.847778
7200,Nunapitchuk Airport,Nunapitchuk,United States,NUP,60.905833,-162.439167
7212,Oakdale Airport,Oakdale,United States,O27,37.7563333,-120.8001944
8662,Metropolitan Oakland International Airport,Oakland,United States,OAK,37.721278,-122.220722
3453,International Airport,Ocala,United States,OCF,29.1725,-82.224167
8510,Ocean Isle Beach Airport,Ocean Isle Beach,United States,60J,33.9085056,-78.4366722
7509,Ocean Reef Club Airport,Key Largo,United States,OCA,25.325393,-80.274775
7889,Ocean Shores Municipal,Ocean Shores,United States,W04,46.5995,-124.0854
9404,Oceana Naval Air Station,Oceana,United States,NTU,36.820703,-76.033542
3870,Oceano County Airport,Oceano,United States,L52,35.10147222,-120.6223611
9173,Hill Air Force Base,Ogden,United States,HIF,41.123939,-111.973039
3614,Ogdensburg International Airport,Ogdensburg,United States,OGS,44.681854,-75.4655
3724,Okeechobee County Airport,Okeechobee,United States,OBE,27.265833,-80.851111
8505,Will Rogers World Airport,Oklahoma City,United States,OKC,35.393089,-97.600733
3863,Tinker Air Force Base,Oklahoma City,United States,TIK,35.414739,-97.386633
3525,New Century AirCenter Airport,Olathe,United States,JCI,38.8309167,-94.8903056
7869,Johnson County Airport,Olathe,United States,OJC,38.5051,-94.4415
9228,Old Harbor Airport,Old Harbor,United States,OLH,57.218056,-153.269722
7163,Olga Bay Seaplane Base,Olga Bay,United States,KOY,57.161389,-154.229722
7170,Olive Branch Municipal Airport,Olive Branch,United States,OLV,34.876944,-89.783333
7817,Olympia Regional Airport,Olympia,United States,OLM,46.9694044,-122.9025447
7650,Offutt Air Force Base,Omaha,United States,OFF,41.118332,-95.912511
3836,Eppley Airfield,Omaha,United States,OMA,41.303167,-95.894069
3454,Oneonta Municipal Airport,Oneonta,United States,ONH,42.524722,-75.064444
7713,Ontario International Airport,Ontario,United States,ONT,34.056,-117.601194
3734,Upolu Airport,Opolu,United States,UPP,20.265256,-155.859989
4079,Orlando International Airport,Orlando,United States,MCO,28.429394,-81.308994
3878,Executive Airport,Orlando,United States,ORL,28.545464,-81.332936
3416,Apopka Airport,Orlando,United States,X04,28.707222,-81.581667
9242,Ormond Beach Municipal Airport,Ormond Beach,United States,OMN,29.1804,-81.06497
8118,Oscoda Wurtsmith Airport,Oscoda,United States,OSC,44.451558,-83.394053
3432,Wittman Regional Airport,Oshkosh,United States,OSH,44.024983,-88.551336
6909,Ouzinkie Airport,Ouzinkie,United States,KOZ,57.922876,-152.500511
7164,Owensboro Daviess County Airport,Owensboro,United States,OWB,37.7401,-87.1668
5758,Waterbury-Oxford Airport,Oxford,United States,OXC,41.4785556,-73.13525
8289,Miami University Airport,Oxford,United States,OXD,39.5022607,-84.7843814
6872,Oxnard-Ventura County,Oxnard,United States,OXR,34.200833,-119.207222
6961,Ozona Municipal Airport,Ozona,United States,OZA,30.735281,-101.202972
4231,Packwood Airport,Packwood,United States,55S,46.3625,-121.4067
9405,Barkley Regional Airport,Paducah,United States,PAH,37.0602875,-88.7729583
4117,Page Municipal Airport,Page,United States,PGA,36.9261,-111.4483
4124,Pahokee Airport,Pahokee,United States,PHK,26.789,-80.692
7661,Palacios Municipal Airport,Palacios,United States,PSX,28.727508,-96.250958
3522,Palm Springs International Airport,Palm Springs,United States,PSP,33.829667,-116.506694
3839,Jacqueline Cochran Regional Airport,Palm Springs,United States,TRM,33.626666,-116.1596667
7646,Bermuda Dunes Airport,Palm Springs,United States,UDD,33.7484375,-116.2748133
7648,Palmdale Regional Airport,Palmdale,United States,PMD,34.629391,-118.08456
3756,Palmer Municipal Airport,Palmer,United States,PAQ,61.594914,-149.088711
3569,Palo Alto Airport,Palo Alto,United States,PAO,37.4611111,-122.1150556
8864,Panama City Airport,Panama City,United States,ECP,30.3417,-85.7973
7669,Tyndall Air Force Base,Panama City,United States,PAM,30.069567,-85.575417
3669,Panama City Bay County International Airport,Panama City,United States,PFN,30.212083,-85.682806
4073,Mid-Ohio Valley Regional Airport,Parkersburg,United States,PKB,39.3451039,-81.4392031
4114,Tri Cities Airport,Pasco,United States,PSC,46.2647,-119.119
6133,Patuxent River Naval Air Station,Patuxent River,United States,NHK,38.285981,-76.411781
3521,Grand Canyon West Airport,Peach Springs,United States,1G4,35.899904,-113.815674
9316,Pecos Municipal Airport,Pecos,United States,PEQ,31.3823889,-103.5107222
8950,Spitfire Aerodrome,Pedricktown,United States,7N7,39.7355633,-75.3977211
8549,Pedro Bay Airport,Pedro Bay,United States,PDB,59.782222,-154.1325
7211,Pelican Seaplane Base,Pelican,United States,PEC,57.955278,-136.236389
7138,Pellston Regional Airport,Pellston,United States,PLN,45.5709,-84.7967
5762,Pembina Municipal Airport,Pembina,United States,PMB,48.942501,-97.240833
3647,Eastern Oregon Regional Airport,Pendleton,United States,PDT,45.695,-118.841389
6883,Pensacola Naval Air Station,Pensacola,United States,NPA,30.352656,-87.318647
3563,Pensacola Regional,Pensacola,United States,PNS,30.473425,-87.186611
3564,Peoria Regional,Peoria,United States,PIA,40.664203,-89.693258
4046,Perry-Foley Airport,Perry,United States,40J,30.0692778,-83.5805833
8064,Perryville Airport,Perryville,United States,KPV,55.906667,-159.160833
7157,Grissom Army Reserve Base,Peru,United States,GUS,40.648094,-86.152119
3871,Illinois Valley Regional,Peru,United States,VYS,41.351944,-89.153056
8497,Petersburg James A. Johnson Airport,Petersburg,United States,PSG,56.801667,-132.945278
4147,Dinwiddie County Airport,Petersburg,United States,PTB,37.18375,-77.507388
9120,Wings Field Airport,Philadelphia,United States,BBX,40.1375,-75.265
8504,Philadelphia International Airport,Philadelphia,United States,PHL,39.871944,-75.241139
3752,Northeast Philadelphia Airport,Philadelphia,United States,PNE,40.081944,-75.010586
3750,Phoenix Regional Airport,Phoenix,United States,A39,32.99169922,-111.9209976
8874,Luke Air Force Base,Phoenix,United States,LUF,33.535,-112.38306
3506,Phoenix Sky Harbor International Airport,Phoenix,United States,PHX,33.434278,-112.011583
3462,Deer Valley Municipal Airport,Phoenix ,United States,DVT,33.4117,112.457
8030,Pierre Regional Airport,Pierre,United States,PIR,44.3827,-100.286
5761,Pike County Airport,Pikeville,United States,PBX,37.5617639,-82.5663889
8320,Pilot Point Airport,Pilot Point,United States,PIP,57.585393,-157.571944
7158,Pilot Station Airport,Pilot Station,United States,PQS,61.934444,-162.899444
7216,Grider Field Airport,Pine Bluff,United States,PBF,34.173142,-91.935597
3443,Harris County Airport,Pine Mountain,United States,PIM,32.8406944,-84.8824444
8305,Moore County Airport,Pinehurst-Southern Pines,United States,SOP,35.2376111,-79.3887958
8519,Allegheny County Airport,Pittsburgh,United States,AGC,40.3544,-79.9302
7495,Pittsburgh International Airport,Pittsburgh,United States,PIT,40.491467,-80.232872
3570,Robertson Field Airport,Plainville,United States,4B8,41.6893333,-72.8646944
8563,Plattsburgh International Airport,Plattsburgh,United States,PBG,44.650944,-73.468139
3771,Plymouth Municipal Airport,Plymouth,United States,C65,41.3651307,-86.3002574
8554,Plymouth Municipal Airport,Plymouth,United States,PYM,41.9090278,-70.7287778
8277,Pocatello Regional Airport,Pocatello,United States,PIH,42.9098,-112.596
5760,Point Baker Seaplane Base,Point Baker,United States,KPB,56.351944,-133.6225
7150,St. George Airport,Point Barrow,United States,PBV,56.578344,-169.661611
3428,Point Hope Airport,Point Hope,United States,PHO,68.3488,-166.799
6721,Point Lay LRRS Airport,Point Lay,United States,PIZ,69.732875,-163.005342
3414,Point Mugu Naval Air Station,Point Mugu,United States,NTD,34.120285,-119.12094
3511,Point Roberts Airpark,Point Roberts,United States,1RL,48.9797222,-123.0788889
6864,Pompano Beach Airpark,Pompano Beach,United States,PMP,26.2471389,-80.1110556
8379,Ponca City Regional Airport,Ponca City,United States,PNC,36.731958,-97.099781
3440,Oakland County International Airport,Pontiac,United States,PTK,42.667,-83.35
8877,Poplar Bluff Municipal Airport,Poplar Bluff,United States,POF,36.77394444,-90.3248611
8664,Port Alsworth Airport,Port alsworth,United States,PTA,60.208281,-154.306586
9387,William R. Fairchild International Airport,Port Angeles,United States,CLM,48.1202,-123.5
5731,Port Angeles Coast Guard Air Station,Port Angeles,United States,NOW,48.141481,-123.414075
3455,Port Bailey Seaplane Base,Port Bailey,United States,KPY,57.93,-153.040556
7171,Port Clarence Coast Guard Air Station,Port Clarence,United States,KPC,65.2537,-166.859
6736,Erie-Ottawa Regional Airport,Port Clinton,United States,PCW,41.5162703,-82.8694868
7775,Port Heiden Airport,Port Heiden,United States,PTH,56.9591,-158.633
6766,St Clair County International Airport,Port Huron,United States,PHN,42.910957,-82.528862
3557,Port Lions Airport,Port Lions,United States,ORI,57.885278,-152.846111
7165,Platinum Airport,Port Moller,United States,PTU,59.011356,-161.819664
3430,Port Oceanic Airport,Port Oceanic,United States,PRL,60.2083333,-147.8194444
9398,Port O'Connor Airfield,Port O'Connor,United States,S46,28.429977,-96.442859
4066,Port Protection Seaplane Base,Port Protection,United States,PPV,56.328889,-133.61
7957,Jefferson County International Airport,Port Townsend,United States,TWD,48.0314,-122.4838
7955,Port Williams Seaplane Base,Port Williams,United States,KPR,58.49,-152.582222
7172,Portage Municipal Airport,Portage,United States,C47,43.5603136,-89.4828607
6852,Portland International Airport,Portland,United States,PDX,45.588722,-122.5975
3720,Portland International Airport Jetport,Portland,United States,PWM,43.646161,-70.309281
3862,Pease International Tradeport,Portsmouth,United States,PSM,43.0779,-70.8233
5763,Ernest A. Love Field Airport,Prescott,United States,PRC,34.654472,-112.419583
3446,Northern Maine Regional Airport,Presque Isle,United States,PQI,46.688958,-68.044797
3528,Carbon County Regional Airport,Price,United States,PUC,39.609722,-110.75278
7583,Princeton Municipal Airport,Princeton,United States,PNM,45.559868,-93.608217
3762,Prospect Creek Airport,Prospect Creek,United States,PPC,66.814167,-150.643611
8052,Prosser Airport,Prosser,United States,S40,46.128,-119.4773
9407,Theodore Francis Green State Airport,Providence,United States,PVD,41.732581,-71.420383
3641,Provincetown Municipal Airport,Provincetown,United States,PVC,42.071945,-70.22139
6456,Provo Municipal Airport,Provo,United States,PVU,40.21805555,-111.7222222
7579,Pueblo Memorial Airport,Pueblo,United States,PUB,38.289085,-104.496572
3527,Pullman-Moscow Regional,Pullman,United States,PUW,46.743861,-117.109583
3944,Charlotte County-Punta Gorda Airport,Punta Gorda,United States,PGD,26.919722,-81.990556
7056,Put-in-Bay Airport,Put-in-Bay,United States,3W2,41.3521,-82.497
7940,Quantico Marine Corps Air Facility,Quantico,United States,NYG,38.501683,-77.305333
3833,Floyd Bennett Memorial Airport,Queensbury,United States,GFL,43.341222,-73.610305
9178,Quincy Municipal Airport,Quincy,United States,2J9,30.5978708,-84.557425
8163,Quincy Regional Baldwin Field Airport,Quincy,United States,UIN,39.9427,-91.1946
5774,Quinhagak Airport,Quinhagak,United States,KWN,59.755,-161.845278
7206,Clarke County Airport,Quitman,United States,23M,32.0517,-88.4434
9448,John H. Batten Airport,Racine,United States,RAC,42.7605,-87.8152
8430,Raleigh Durham International Airport,Raleigh-Durham,United States,RDU,35.877639,-78.787472
3626,Ramona Airport,Ramona,United States,RNM,33.0391667,-116.91525
8608,Rampart Airport,Rampart,United States,RMP,65.507778,-150.140833
7112,Rancho Murieta Airport,Rancho Murieta,United States,RIU,38.486778,-121.102778
3643,Rapid City Regional Airport,Rapid City,United States,RAP,44.045278,-103.057222
4087,Ellsworth Air Force Base,Rapid City,United States,RCA,44.145042,-103.103567
3625,Rawlins Municipal Airport,Rawlins,United States,RWL,41.8055975,-107.19994
7986,Reading Regional Carl A. Spaatz Field Airport,Reading,United States,RDG,40.3785,-75.9652
5764,Red Devil Airport,Red Devil,United States,RDV,61.788056,-157.350278
7239,Grand Forks Air Force Base,Red River,United States,RDR,47.961098,-97.401194
3565,Redding Municipal Airport,Redding,United States,RDD,40.509,-122.293389
4098,Redlands Municipal Airport,Redlands,United States,REI,34.08525,-117.146388
8443,Roberts Field Airport,Redmond-Bend,United States,RDM,44.254066,-121.149964
4103,Redstone Army Airfield,Redstone,United States,HUA,34.678653,-86.684781
3480,Reno Tahoe International Airport,Reno,United States,RNO,39.499108,-119.768108
3807,Renton Airport,Renton,United States,RNT,47.4931389,-122.21575
8796,Ferry County Airport,Republic,United States,R49,48.7182058,-118.6564714
7874,Rhinelander Oneida County Airport,Rhinelander,United States,RHI,45.6312,-89.4675
5765,Richfield Minicipal Airport,Richfield,United States,RIF,38.7364361,-112.0989444
7582,Richland Airport,Richland Center,United States,93C,43.2833575,-90.2982819
8522,Richmond International Airport,Richmond,United States,RIC,37.505167,-77.319667
3608,Richmond Municipal Airport,Richmond,United States,RID,39.7561006,-84.8427175
7777,Cuyahoga County Airport,Richmond Heights,United States,CGF,41.565124,-81.4863555
4253,Ridgeland Airport,Ridgeland,United States,3J1,32.4934167,-80.99175
8518,Garfield County Regional Airport,Rifle,United States,RIL,39.5263056,-107.7269444
7652,Riverside Municipal Airport,Riverside,United States,RAL,33.951875,-117.445103
3799,Flabob Airport,Riverside,United States,RIR,33.988778,-117.409971
8445,March Army Reserve Base,Riverside,United States,RIV,33.880711,-117.259453
3815,Riverton Regional Airport,Riverton,United States,RIW,43.064167,-108.459722
6881,Roanoke Regional Airport,Roanoke,United States,ROA,37.325472,-79.975417
4016,Robinson Army Airfield,Robinson,United States,RBM,34.850089,-92.300153
3501,Roche Harbor Seaplane Base,Roche Harbor,United States,RCE,48.608056,-123.159722
8170,Skyhaven Airport,Rochester,United States,DAW,43.2840556,-70.9292778
9396,Greater Rochester International Airport,Rochester,United States,ROC,43.118866,-77.672389
3622,Rochester Airport,Rochester,United States,RST,43.908283,-92.500014
4048,Rock Hill York County Bryant Airport,Rock Hill,United States,RKH,34.9878,-81.0572
7494,Rock Springs Sweetwater County Airport,Rock Springs,United States,RKS,41.5942,-109.065
5766,Chicago Rockford International Airport ,Rockford,United States,RFD,42.1953611,-89.0972222
4028,Richmond County Airport,Rockingham,United States,RCZ,34.8913056,-79.7596111
8520,Knox County Regional Airport,Rockland,United States,RKD,44.0601111,-69.0992303
4026,Aransas County Airport,Rockport,United States,RKP,28.0862222,-97.0436944
8077,Rocky Mount Wilson Regional Airport,Rocky Mount,United States,RWI,35.8563,-77.8919
7690,Griffiss International Airport,Rome,United States,RME,43.2338,-75.407033
3450,Richard B Russell Airport,Rome,United States,RMG,34.3507778,-85.1586667
8294,Rosario Seaplane Base,Rosario,United States,RSJ,48.645556,-122.868056
8172,Rosecrans Memorial Airport,Rosecrans,United States,STJ,39.771944,-94.909706
7042,Roswell International Airport Air Center,Roswell,United States,ROW,33.301556,-104.530556
3736,Ruby Airport,Ruby,United States,RBY,64.7272,-155.47
6722,Sierra Blanca Regional Airport,Ruidoso,United States,SRR,33.46285,-105.534751
7077,Russian Mission Airport,Russian Mission,United States,RSH,61.775,-161.319444
7098,Rutland State Airport,Rutland,United States,RUT,43.5294,-72.9496
5767,Sabetha Municipal Airport,Sabetha,United States,K83,39.5425,-95.4677
9412,Mc Clellan Airfield,Sacramento,United States,MCC,38.667639,-121.400611
3684,Sacramento Mather Airport,Sacramento,United States,MHR,38.553897,-121.297592
3434,Sacramento Executive Airport,Sacramento,United States,SAC,38.512524,-121.49347
3663,Sacramento International Airport,Sacramento,United States,SMF,38.695417,-121.590778
3817,Safford Regional Airport,Safford,United States,SAD,32.8533333,-109.6350833
9140,MBS International Airport,Saginaw,United States,MBS,43.532913,-84.079647
4128,Saint Cloud Regional Airport,Saint Cloud,United States,STC,45.546556,-94.059889
4271,St. George Municipal Airport,Saint George,United States,SGU,37.090583,-113.593056
4064,McNary Field Airport,Salem,United States,SLE,44.9095,-123.003
7826,Salina Municipal Airport,Salina,United States,SLN,38.791,-97.6522
5771,Salisbury Ocean City Wicomico Regional Airport,Salisbury,United States,SBY,38.340525,-75.510289
3642,Lemhi County Airport,Salmon,United States,SMN,45.123889,-113.881389
7080,Salt Lake City International Airport,Salt Lake City,United States,SLC,40.788389,-111.977772
3536,Saluda County Airport,Saluda,United States,6J4,33.5561,-81.4768
9416,San Angelo Regional Airport,San Angelo,United States,SJT,31.35775,-100.496306
3708,Randolph Air Force Base,San Antonio,United States,RND,29.529675,-98.2789
3757,San Antonio International Airport,San Antonio,United States,SAT,29.533694,-98.469778
3621,Lackland Air Force Base,San Antonio,United States,SKF,29.384228,-98.581108
3727,San Bernardino International Airport,San Bernardino,United States,SBD,34.0953521,-117.2348722
7670,San Carlos Airport,San Carlos,United States,SQL,37.511944,-122.249444
7683,Montgomery Field Airport,San Diego,United States,MYF,32.4759,117.759
8345,North Island Naval Air Station,San Diego,United States,NZY,32.699219,-117.21531
9541,San Diego International Airport,San Diego,United States,SAN,32.733556,-117.189667
3731,Brown Field Municipal Airport,San Diego,United States,SDM,32.5722722,-116.9801611
7659,San Francisco International Airport,San Francisco,United States,SFO,37.618972,-122.374889
3469,Norman Y Mineta San Jose International Airport,San Jose,United States,SJC,37.3626,-121.929022
3748,Uganik Seaplane Base,San Juan,United States,WSJ,57.730278,-153.320556
7174,Scappoose Industrial Airpark,San Luis,United States,SPB,45.771028,-122.861833
3616,San Luis County Regional Airport,San Luis Obispo,United States,SBP,35.2368,-120.642
5768,Sand Point Airport,Sand Point,United States,SDP,55.315,-160.523
6742,Griffing Sandusky Airport,Sandusky,United States,SKY,41.433361,-82.652333
3821,Orlando Sanford International Airport,Sanford,United States,SFB,28.777639,-81.237489
4167,Sanford Regional Airport,Sanford,United States,SFM,43.39383,-70.708
4269,El Toro Airport,Santa Ana,United States,NZJ,33.676132,-117.731164
4298,John Wayne Airport,Santa Ana,United States,SNA,33.675667,-117.868222
3867,Santa Barbara Municipal Airport,Santa Barbara,United States,SBA,34.426211,-119.840372
3949,Emanuel County Airport,Santa Barbara,United States,SBO,32.609139,-82.369944
3657,Santa Fe Municipal Airport,Santa Fe,United States,SAF,35.617108,-106.089422
3784,Santa Maria Pub Cpt G Allan Hancock Airport,Santa Maria,United States,SMX,34.8989,-120.457
5772,Santa Monica Municipal Airport,Santa Monica,United States,SMO,34.0158333,-118.4513056
7647,Charles M Schulz Sonoma County Airport,Santa Rosa,United States,STS,38.508978,-122.81288
6992,Adirondack Regional Airport,Saranac Lake,United States,SLK,44.3853,-74.2062
5770,Sarasota Bradenton International Airport,Sarasota,United States,SRQ,27.395444,-82.554389
4067,Shively Field Airport,Saratoga,United States,SAA,41.4448594,-106.8235264
7653,Chippewa County International Airport,Sault Ste Marie,United States,CIU,46.2508,-84.4724
5729,Savannah Hilton Head International Airport,Savannah,United States,SAV,32.127583,-81.202139
3613,Savoonga Airport,Savoonga,United States,SVA,63.6864,-170.493
6724,Scammon Bay Airport,Scammon Bay,United States,SCM,61.845278,-165.571389
7209,Schaumburg Regional Airport,Schaumburg,United States,06C,41.9893408,-88.1012428
8649,Schenectady County Airport,Scotia,United States,SCH,42.85245555,-73.92886667
6968,Western Nebraska Regional Airport,Scottsbluff,United States,BFF,41.874,-103.596
5723,Wilkes Barre Scranton International Airport,Scranton,United States,AVP,41.338478,-75.723403
4286,Seal Bay Seaplane Base,Seal Bay,United States,SYB,58.166667,-152.5
7173,Boeing Field King County International Airport,Seattle,United States,BFI,47.53,-122.301947
3726,Kenmore Air Harbor Seaplane Base,Seattle,United States,LKE,47.629,-122.339
6457,Seattle Tacoma International Airport,Seattle,United States,SEA,47.449,-122.309306
3577,Sebastian Municipal Airport,Sebastian,United States,X26,27.81325,-80.4955833
9200,Hendricks Army Airfield,Sebring,United States,SEF,27.456389,-81.342222
8506,Sedona Airport,Sedona,United States,SDX,34.848628,-111.788472
4280,Selawik Airport,Selawik,United States,WLK,66.6,-159.985833
7182,Craig Field Airport,Selma,United States,SEM,32.343947,-86.987803
3874,Selfield Airport,Selma Alabama,United States,SES,32.4404,-86.9522
8959,Finger Lakes Regional Airport,Seneca Falls,United States,0G7,42.8835647,-76.7812318
8561,Seward Airport,Seward,United States,SWD,60.1269383,-149.4188122
6845,Shageluk Airport,Shageluk,United States,SHX,62.692222,-159.569167
7090,Shaktoolik Airport,Shaktoolik,United States,SKK,64.371111,-161.223889
7192,Sheboygan County Memorial Airport,Sheboygan,United States,SBM,43.7696,-87.851402
9126,Shelby County Airport,Shelbyville,United States,2H0,39.410556,-88.845556
9305,Eareckson Airport,Shemya,United States,SYA,52.712275,174.11362
3813,Sheridan County Airport,Sheridan,United States,SHR,44.7692,-106.98
5769,Shishmaref Airport,Shishmaref,United States,SHH,66.2496,-166.089
6723,Show Low Regional Airport,Show Low,United States,SOW,34.265556,-110.005556
7078,Barksdale Air Force Base,Shreveport,United States,BAD,32.50182,-93.662674
3842,Shreveport Regional Airport,Shreveport,United States,SHV,32.446629,-93.8256
3609,Shungnak Airport,Shungnak,United States,SHG,66.888056,-157.1625
7117,Sidney-Richland Municipal Airport,Sidney,United States,SDY,47.706944,-104.1925
7065,Sidney Muni Airport,Sidney,United States,SNY,41.10167,-102.985
8815,Sikeston Memorial Municipal,Sikeston,United States,SIK,36.8988889,-89.56175
9164,Grant County Airport,Silver City,United States,SVC,32.6365,-108.156
6135,Silver Springs Airport,Silver Springs,United States,SPZ,39.4030278,-119.2511944
8219,Sioux Gateway Col Bud Day Field Airport,Sioux City,United States,SUX,42.402603,-96.384367
3753,Sioux Falls Airport,Sioux Falls,United States,FSD,43.582014,-96.741914
4009,Chatham Seaplane Base,Sitka,United States,CYM,57.515,-134.946111
7139,Sitka Rocky Gutierrez Airport,Sitka,United States,SIT,57.047138,-135.361611
3856,Skagway Airport,Skagway,United States,SGY,59.4601,-135.316
5961,Sleetmute Airport,Sleetmute,United States,SLQ,61.700566,-157.165833
7240,North Central State Airport,Smithfield,United States,SFZ,41.920764,-71.491381
3781,Soldotna Airport,Soldotna,United States,SXQ,60.4749583,-151.0382389
7692,Somerset County Airport,Somerset,United States,2G9,40.0388708,-79.0149951
8539,Lake Cumberland Regional Airport,Somerset,United States,SME,37.053611,-84.615556
7061,South Bend Regional Airport,South Bend,United States,SBN,41.708661,-86.31725
4359,South Haven Area Regional Airport,South Haven,United States,LWA,42.3511944,-86.2556389
8648,Lake Tahoe Airport,South Lake Tahoe,United States,TVL,38.893889,-119.995278
4262,South Naknek Airport,South Naknek,United States,WSN,58.702222,-157.0025
7159,Sparrevohn LRRS Airport,Sparrevohn,United States,SVW,61.097369,-155.574228
3421,Black Hills Airport,Spearfish,United States,SPF,44.4811407,-103.7860053
7809,Spencer Municipal Airport,Spencer,United States,SPW,43.165527,-95.202805
6446,Spokane International Airport,Spokane,United States,GEG,47.619861,-117.533833
3467,Felts Field Airport,Spokane,United States,SFF,47.682819,-117.322558
3716,Fairchild Air Force Base,Spokane,United States,SKA,47.615058,-117.655772
3667,Springfield Branson National Airport,Springfield,United States,SGF,37.245667,-93.388639
4348,Springfield-Beckly Municipal Airport,Springfield,United States,SGH,39.8402778,-83.8401667
7908,Abraham Lincoln Capital Airport,Springfield,United States,SPI,39.8441,-89.677889
4336,Hartness State Airport,Springfield,United States,VSF,43.343333,-72.517222
4267,St. Marys Airport,St Mary's,United States,KSM,62.0605,-163.302
6718,St. Augustine Airport,St. Augustine Airport,United States,UST,29.959167,-81.339722
6989,St. George Airport,St. George,United States,STG,56.577222,-169.663611
7247,Lambert St. Louis International Airport,St. Louis,United States,STL,38.748697,-90.370028
3678,Fortman Airport,St. Marys,United States,1OH,40.5553253,-84.3866186
6921,St. Michael Airport,St. Michael,United States,SMK,63.49,-162.110278
7191,St. Paul Island Airport,St. Paul Island,United States,SNP,57.167333,-170.220444
3426,St. Petersburg Clearwater International Airport,St. Petersburg,United States,PIE,27.910167,-82.687389
3617,Albert Whitted Airport,St. Petersburg,United States,SPG,27.765111,-82.626972
3548,University Park Airport,Pennsylvania State College ,United States,SCE,40.849278,-77.848694
4318,Statesville Regional Airport,Statesville,United States,SVH,35.7649958,-80.9538958
8526,Steamboat Springs Airport,Steamboat Springs,United States,SBS,40.51625,-106.8663056
7580,Stebbins Airport,Stebbins,United States,WBB,63.515833,-162.278056
7193,Spring Hill Airport,Sterling,United States,70N,41.3473569,-75.4158972
8530,Sterling Municipal Airport,Sterling,United States,STK,40.6153136,-103.2648454
7985,Jefferson County Airpark,Steubenville,United States,2G2,40.3602179,-80.7008742
8795,Stevens Point Municipal Airport,Stevens Point,United States,STE,44.5451356,-89.5302844
8744,Shoestring Aviation Airfield,Stewartstown,United States,0P2,39.7948244,-76.6471914
6884,Stockton Metropolitan Airport,Stockton,United States,SCK,37.894167,-121.238306
3805,Stony River Airport,Stony River,United States,SRV,61.7875,-156.591111
7241,Stormville Airport,Stormville,United States,N69,41.5769708,-73.7323514
8562,Igor I. Sikorsky Memorial Airport,Stratford,United States,BDR,41.163472,-73.126167
3579,Witham Field Airport,Stuart,United States,SUA,27.1816996,-80.221294
7656,Door County Cherryland Airport,Sturgeon Bay,United States,SUE,44.8436667,-87.4215556
6885,Sylvania Airport,Sturtevant,United States,C89,42.70325,-87.9589722
8527,Sugar Land Regional Airport,Sugar Land,United States,SGR,29.62225,-95.6565278
4220,Shaw Air Force Base,Sumter,United States,SSC,33.972719,-80.470564
3733,Banks Airport,Swans Island,United States,ME5,44.1653889,-68.4281667
8668,Plantation Airpark,Sylvania,United States,JYL,32.6452778,-81.5971111
8298,Syracuse Hancock International Airport,Syracuse,United States,SYR,43.111187,-76.106311
3745,Mc Chord Air Force Base,Tacoma,United States,TCM,47.137678,-122.476475
3672,Tacoma Narrows Airport,Tacoma,United States,TIW,47.267944,-122.57811
8446,Takotna Airport,Takotna,United States,TCT,62.971944,-156.082778
7215,Talkeetna Airport,Talkeetna,United States,TKA,62.3205,-150.093694
4004,Tallahassee Regional Airport,Tallahassee,United States,TLH,30.396528,-84.350333
3698,Macdill Air Force Base,Tampa,United States,MCF,27.849339,-82.521214
3789,Tampa International Airport,Tampa,United States,TPA,27.975472,-82.53325
3646,Tampa Executive Airport,Tampa,United States,VDF,28.0139772,-82.3452778
8339,Tampa North Airpark,Tampa,United States,X39,28.221278,-82.374555
8447,Tanana Airport,Tanana,United States,TAL,65.179556,-152.075833
7113,Rock Airport,Tarentum,United States,9G1,40.6035463,-79.8261189
9349,Tatalina LRRS Airport,Tatalina,United States,TLJ,62.894369,-155.976525
3423,Tatitlek Airport,Tatitlek,United States,TEK,60.8725,-146.691111
7248,Taunton Municipal Airport,Taunton,United States,TAN,41.8744017,-71.0166453
8276,Teller Airport,Teller,United States,TLA,65.240278,-166.339444
7186,Telluride Airport,Telluride,United States,TEX,37.953759,-107.90848
4084,Draughon Miller Central Texas Regional Airport,Temple,United States,TPL,31.1525,-97.407778
4230,Tenakee Seaplane Base,Tenakee Springs,United States,TKE,57.779722,-135.218333
7137,Terre Haute International Airport,Terre Haute,United States,HUF,39.451464,-87.307561
3603,Teterboro Airport,Teterboro,United States,TEB,40.850103,-74.060837
3624,Texarkana Regional Webb Field Airport,Texarkana,United States,TXK,33.453722,-93.991028
3770,Thief River Falls Airport,Thief River Falls,United States,TVF,48.065556,-96.185
7018,Thomasville Regional Airport,Thomasville,United States,TVI,30.9017921,-83.8811285
7998,McDuffie County Airport,Thomson,United States,HQU,33.5297315,-82.5169509
8514,Thorne Bay Seaplane Base,Thorne Bay,United States,KTB,55.688056,-132.536667
7147,Henry Tift Myers Airport,Tifton,United States,TMA,31.4289814,-83.488545
8005,Tin City LRRS Airport,Tin City,United States,TNC,65.563056,-167.921667
7194,Space Coast Regional Airport,Titusville,United States,TIX,28.5148,-80.7992278
9199,Arthur Dunn Airpark,Titusville,United States,X21,28.622552,-80.83541
4070,Toccoa RG Letourneau Field Airport,Toccoa,United States,TOC,34.5928117,-83.2963717
8322,Togiak Airport,Togiak Village,United States,TOG,59.0528,-160.397
6767,Tok Junction Airport,Tok,United States,6K8,63.329444,-142.953611
7235,Toksook Bay Airport,Toksook Bay,United States,OOK,60.541389,-165.087222
8200,Toledo Airport,Toledo,United States,TOL,41.586806,-83.807833
4040,Bloyer Field Airport,Tomah,United States,Y72,43.9762222,-90.4806111
8607,Tonopah Test Range Airport,Tonopah,United States,TNX,37.798836,-116.78075
3592,Forbes Field Airport,Topeka,United States,FOE,38.950944,-95.663611
3843,Philip Billard Municipal Airport,Topeka,United States,TOP,39.068657,-95.622482
7925,Zamperini Field Airport,Torrance,United States,TOA,33.803392,-118.339611
7053,Cherry Capital Airport,Traverse City,United States,TVC,44.741445,-85.582235
4023,Trenton-Robbinsville Airport,Trenton,United States,N87,40.2139444,-74.6017778
8547,Trenton Mercer Airport,Trenton,United States,TTN,40.276692,-74.813469
3447,Portland Troutdale Airport,Troutdale,United States,TTD,45.54937,-122.401253
8121,Truckee-Tahoe Airport,Truckee,United States,TKF,39.3200422,-120.1395628
7702,Truth Or Consequences Municipal Airport,Truth Or Consequences,United States,TCS,33.236944,-107.27175
3755,Marana Regional Airport,Tucson,United States,AVW,32.409556,-111.218388
7979,Davis Monthan Air Force Base,Tucson,United States,DMA,32.166467,-110.883144
3562,Tucson International Airport,Tucson,United States,TUS,32.116083,-110.941028
3636,Tucumcari Municipal Airport,Tucumcari,United States,TCC,35.182777,-103.603186
3773,Richard Lloyd Jones Jr. Airport,Tulsa,United States,RVS,36.0396111,-95.9846389
7849,Tulsa International Airport,Tulsa,United States,TUL,36.198389,-95.888111
3855,Tuluksak Airport,Tuluksak,United States,TLT,61.096944,-160.969444
7218,Tunica Municipal Airport,Tunica,United States,UTM,34.681,-90.3467
7827,Tuntutuliak Airport,Tuntutuliak,United States,WTL,60.335278,-162.666944
7099,Tununak Airport,Tununak,United States,TNK,60.575556,-165.271667
8201,Tupelo Regional Airport,Tupelo,United States,TUP,34.2681,-88.7699
5773,Tuscaloosa Regional,Tuscaloosa,United States,TCL,33.220627,-87.611403
4387,Moton Field Municipal Airport,Tuskegee,United States,06A,32.4605722,-85.6800278
8317,Twentynine Palms Strategic Expeditionary Landing Field Airport,Twenty Nine Palms,United States,NXP,34.296161,-116.162203
3436,Magic Valley Regional Airport,Twin Falls,United States,TWF,42.481803,-114.487733
4263,Twin Hills Airport,Twin Hills,United States,TWA,59.074444,-160.275
7104,Tyler Pounds Regional Airport,Tyler,United States,TYR,32.354139,-95.402386
3848,Tyonek Airport,Tyonek,United States,TYE,61.076667,-151.138056
6882,Unalakleet Airport,Unalakleet,United States,UNK,63.888333,-160.798889
7088,Unalaska Airport,Unalaska,United States,DUT,53.900139,-166.5435
3860,Frasca Field Airport,Urbana,United States,C16,40.144979,-88.200197
7887,Union Station Airport,Utica,United States,UCA,43.104167,-75.223333
9455,Garner Field Airport,Uvalde,United States,UVA,29.215429,-99.748962
7885,Eagle County Regional Airport,Vail,United States,EGE,39.642556,-106.917694
4250,Valdez Pioneer Field,Valdez,United States,VDZ,61.133949,-146.248342
3865,Moody Air Force Base,Valdosta,United States,VAD,30.967833,-83.193
3575,Valdosta Regional Airport,Valdosta,United States,VLD,30.7825,-83.2767
5776,Valkaria Municipal Airport,Valkaria,United States,X59,27.9608611,-80.5583333
9198,Porter County Municipal Airport,Valparaiso,United States,NPZ,41.4539722,-87.0070833
6848,Eglin Air Force Base,Valparaiso,United States,VPS,30.48325,-86.5254
3873,Van Nuys Airport,Van Nuys,United States,VNY,34.209811,-118.489972
4071,Van Wert County Airport,Van Wert,United States,VNW,40.8638295,-84.606358
8556,Venetie Airport,Venetie,United States,VEE,67.008611,-146.366389
7114,Vernal Regional Airport,Vernal,United States,VEL,40.440833,-109.51
7076,Vero Beach Municipal Airport,Vero Beach,United States,VRB,27.655556,-80.417944
3688,Victoria Regional Airport,Victoria,United States,VCT,28.8526,-96.9185
5775,Southern California Logistics Airport,Victorville,United States,VCV,34.597453,-117.382997
3554,Martha's Vineyard Airport,Vineyard Haven,United States,MVY,41.391667,-70.615278
4265,Municipal Airport,Viroqua,United States,Y51,43.5793603,-90.8964742
8523,Visalia Municipal Airport,Visalia,United States,VIS,36.318611,-119.392778
7121,Waco Regional Airport,Waco,United States,ACT,31.611289,-97.230519
3700,TSTC Waco Airport,Waco,United States,CNW,31.637831,-97.074139
3476,Wadsworth Municipal Airport,Wadsworth,United States,3G3,41.0031572,-81.7564401
8535,Wheeler Army Airfield,Wahiawa,United States,HHI,21.4835,-158.039667
3499,Waikoloa Heliport,Waikoloa Village,United States,WKL,19.9136,-155.864
6415,Wainwright Airport,Wainwright,United States,AIN,70.638056,-159.994722
7220,Wales Airport,Wales,United States,WAA,65.6225,-168.095
7187,Walla Walla Regional Airport,Walla Walla,United States,ALW,46.0949,-118.288
5719,Wallops Flight Facility,Wallops Island,United States,WAL,37.940194,-75.466389
3801,Ronald Reagan Washington National Airport,Washington,United States,DCA,38.852083,-77.037722
3520,Washington Dulles International Airport,Washington,United States,IAD,38.944533,-77.455811
3714,Westerly State Airport,Washington County,United States,WST,41.349722,-71.803333
8194,Central Wisconsin Airport,Wassau,United States,CWA,44.772726,-89.646635
4045,Waterloo Regional Airport,Waterloo,United States,ALO,42.5571,-92.4003
5718,Watertown International Airport,Watertown,United States,ART,43.991922,-76.021739
3838,Watertown Regional Airport,Watertown,United States,ATY,44.914,-97.1547
5721,Waukesha County Airport,Waukesha,United States,UES,43.0410278,-88.2370556
6903,Waupaca Municipal Airport,Waupaca,United States,PCZ,44.33325,-89.0197778
8743,Wausau Downtown Airport,Wausau,United States,AUW,44.9262845,-89.6270018
6853,Eagle's Nest Airport,Waynesboro,United States,W13,38.076944,-78.944167
8819,Wellington Municipal Airport,Wellington,United States,EGT,37.39411,-97.423225
8367,Pangborn Field Airport,Wenatchee,United States,EAT,47.398,-120.206
6916,Wendover Airport,Wendover,United States,ENV,40.718694,-114.030889
3451,Dupage Airport,West Chicago,United States,DPA,41.907778,-88.248611
3699,Brandywine Airport,West Goshen Township,United States,OQN,39.5924,-75.3455
9249,Francis S. Gabreski Airport,West Hampton Beach,United States,FOK,40.843656,-72.631789
3590,Palm Beach County Park Airport,West Palm Beach,United States,LNA,26.593,-80.085056
3593,Palm Beach International Airport,West Palm Beach,United States,PBI,26.683161,-80.095589
3722,West Point Village Seaplane Base,West Point,United States,KWP,57.77,-153.548889
7175,Yellowstone Airport,West Yellowstone,United States,WYS,44.688333,-111.1175
7072,Barnes Municipal Airport,Westfield,United States,BAF,42.1579472,-72.715875
8281,Westsound Seaplane Base,Westsound,United States,WSX,48.617778,-122.952778
8173,Shenandoah Valley Regional Airport,Weyers Cave,United States,SHD,38.263889,-78.896389
7062,Wheeling Ohio County Airport,Wheeling,United States,HLG,40.175,-80.6463
8062,Whidbey Island Naval Air Station,Whidbey Island,United States,NUW,48.351803,-122.655906
3573,White Mountain Airport,White Mountain,United States,WMO,64.689167,-163.412778
7188,Westchester County Airport,White Plains,United States,HPN,41.066959,-73.707575
3589,Condron Army Airfield,White Sands,United States,WSD,32.341484,-106.40277
3853,Beech Factory Airport,Wichita,United States,BEC,37.6939167,-97.2149167
8804,Mc Connell Air Force Base,Wichita,United States,IAB,37.621853,-97.268192
3767,Wichita Mid Continent Airport,Wichita,United States,ICT,37.649944,-97.433056
3457,Sheppard Air Force Base Wichita Falls Municipal Airport,Wichita Falls,United States,SPS,33.988797,-98.491894
3680,Wickenburg Municipal Airport,Wickenburg,United States,E25,33.96889877,-112.7990036
8875,Cape May County Airport,Wildwood,United States,WWD,39.008507,-74.908275
3740,Wilkes-Barre Wyoming Valley Airport,Wilkes-Barre,United States,WBW,41.2973074,-75.8522405
8625,Williamson-Sodus Airport,Williamson,United States,SDC,43.2347904,-77.119444
8850,Williamsport Regional Airport,Williamsport,United States,IPT,41.241836,-76.921094
3584,Windham Airport,Willimantic,United States,IJD,41.7440278,-72.1802222
8282,Sloulin Field International Airport,Williston,United States,ISN,48.177939,-103.642347
3659,Lost Nation Municipal Airport,Willoughby,United States,LNN,41.6840278,-81.38975
8626,Willow Grove Naval Air Station,Willow Grove,United States,NXX,40.199833,-75.148167
3803,New Castle Airport,Wilmington,United States,ILG,39.678722,-75.606528
3859,Wilmington International Airport,Wilmington,United States,ILM,34.270615,-77.902569
3845,Wilmington Airborne Airpark,Wilmington,United States,ILN,39.42792,-83.792118
7978,Barrow County Airport,Winder,United States,WDR,33.9828611,-83.6674167
8297,Windom Municipal Airport,Windom,United States,MWM,43.9134017,-95.1094083
8928,Bradley International Airport,Windsor Locks,United States,BDL,41.938889,-72.683222
3825,Winkler County Airport,Wink,United States,INK,31.779628,-103.201361
3686,Fairfield County Airport,Winnsboro,United States,FDW,34.315472,-81.108806
9390,Winslow-Lindbergh Regional Airport,Winslow,United States,INW,35.0219167,-110.7225278
7587,Smith Reynolds Airport,Winston-salem,United States,INT,36.133722,-80.222
3553,Gilbert Airport,Winter Haven,United States,GIF,28.062778,-81.753333
8508,Seaplane Base,Winterhaven,United States,F57,28.0575,-81.7628056
8791,Alexander Field South Wood County Airport,Wisconsin Rapids,United States,ISW,44.3606456,-89.8381412
8783,LM Clayton Airport,Wolf Point,United States,OLF,48.094444,-105.575
7071,Worcester Regional Airport,Worcester,United States,ORH,42.2673,-71.8757
6426,Worland Municipal Airport,Worland,United States,WRL,43.9657,-107.951
5777,Wrangell Airport,Wrangell,United States,WRG,56.4843,-132.37
5969,Mc Guire Air Force Base,Wrightstown,United States,WRI,40.015556,-74.591667
3655,Yakataga Airport,Yakataga,United States,CYT,60.081901,-142.493611
7198,Yakima Air Terminal McAllister Field Airport,Yakima,United States,YKM,46.5682,-120.544
5779,Yakutat Airport,Yakutat,United States,YAK,59.3012,-139.3937
6803,Chan Gurney Airport,Yankton,United States,YKN,42.8711,-97.3969
8958,Lansdowne Airport,Youngstown,United States,04G,41.1304722,-80.6195833
8534,Youngstown Elser Metro Airport,Youngstown,United States,4G4,40.9617953,-80.6773264
8540,Youngstown Warren Regional Airport,Youngstown,United States,YNG,41.260736,-80.679097
3881,Yuba County Airport,Yuba City,United States,MYV,39.0553,-121.3411
7875,Yuma Marine Corps Air Station Yuma International Airport,Yuma,United States,YUM,32.656578,-114.60598
3596,Zachar Bay Seaplane Base,Zachar Bay,United States,KZB,57.55,-153.75
